<?xml version="1.0" encoding="UTF-8"?>
<kml xmlns="http://www.opengis.net/kml/2.2" xmlns:gx="http://www.google.com/kml/ext/2.2" xmlns:kml="http://www.opengis.net/kml/2.2" xmlns:atom="http://www.w3.org/2005/Atom">
<Document>
	<name>EPNC.kml</name>
	<StyleMap id="m_ylw-pushpin">
		<Pair>
			<key>normal</key>
			<styleUrl>#s_ylw-pushpin</styleUrl>
		</Pair>
		<Pair>
			<key>highlight</key>
			<styleUrl>#s_ylw-pushpin_hl</styleUrl>
		</Pair>
	</StyleMap>
	<StyleMap id="m_ylw-pushpin01">
		<Pair>
			<key>normal</key>
			<styleUrl>#s_ylw-pushpin5</styleUrl>
		</Pair>
		<Pair>
			<key>highlight</key>
			<styleUrl>#s_ylw-pushpin_hl0</styleUrl>
		</Pair>
	</StyleMap>
	<StyleMap id="m_ylw-pushpin4">
		<Pair>
			<key>normal</key>
			<styleUrl>#s_ylw-pushpin003</styleUrl>
		</Pair>
		<Pair>
			<key>highlight</key>
			<styleUrl>#s_ylw-pushpin_hl22</styleUrl>
		</Pair>
	</StyleMap>
	<StyleMap id="msn_ylw-pushpin227">
		<Pair>
			<key>normal</key>
			<styleUrl>#sn_ylw-pushpin1</styleUrl>
		</Pair>
		<Pair>
			<key>highlight</key>
			<styleUrl>#sh_ylw-pushpin00</styleUrl>
		</Pair>
	</StyleMap>
	<StyleMap id="msn_ylw-pushpin46">
		<Pair>
			<key>normal</key>
			<styleUrl>#sn_ylw-pushpin300</styleUrl>
		</Pair>
		<Pair>
			<key>highlight</key>
			<styleUrl>#sh_ylw-pushpin309</styleUrl>
		</Pair>
	</StyleMap>
	<Style id="s_ylw-pushpin">
		<IconStyle>
			<scale>1.1</scale>
			<Icon>
				<href>http://maps.google.com/mapfiles/kml/pushpin/ylw-pushpin.png</href>
			</Icon>
			<hotSpot x="20" y="2" xunits="pixels" yunits="pixels"/>
		</IconStyle>
	</Style>
	<Style id="s_ylw-pushpin003">
		<IconStyle>
			<scale>1.1</scale>
			<Icon>
				<href>http://maps.google.com/mapfiles/kml/pushpin/ylw-pushpin.png</href>
			</Icon>
			<hotSpot x="20" y="2" xunits="pixels" yunits="pixels"/>
		</IconStyle>
	</Style>
	<Style id="s_ylw-pushpin5">
		<IconStyle>
			<scale>1.1</scale>
			<Icon>
				<href>http://maps.google.com/mapfiles/kml/pushpin/ylw-pushpin.png</href>
			</Icon>
			<hotSpot x="20" y="2" xunits="pixels" yunits="pixels"/>
		</IconStyle>
	</Style>
	<Style id="s_ylw-pushpin_hl">
		<IconStyle>
			<scale>1.3</scale>
			<Icon>
				<href>http://maps.google.com/mapfiles/kml/pushpin/ylw-pushpin.png</href>
			</Icon>
			<hotSpot x="20" y="2" xunits="pixels" yunits="pixels"/>
		</IconStyle>
	</Style>
	<Style id="s_ylw-pushpin_hl0">
		<IconStyle>
			<scale>1.3</scale>
			<Icon>
				<href>http://maps.google.com/mapfiles/kml/pushpin/ylw-pushpin.png</href>
			</Icon>
			<hotSpot x="20" y="2" xunits="pixels" yunits="pixels"/>
		</IconStyle>
	</Style>
	<Style id="s_ylw-pushpin_hl22">
		<IconStyle>
			<scale>1.3</scale>
			<Icon>
				<href>http://maps.google.com/mapfiles/kml/pushpin/ylw-pushpin.png</href>
			</Icon>
			<hotSpot x="20" y="2" xunits="pixels" yunits="pixels"/>
		</IconStyle>
	</Style>
	<Style id="sh_ylw-pushpin00">
		<IconStyle>
			<scale>1.3</scale>
			<Icon>
				<href>http://maps.google.com/mapfiles/kml/pushpin/ylw-pushpin.png</href>
			</Icon>
			<hotSpot x="20" y="2" xunits="pixels" yunits="pixels"/>
		</IconStyle>
		<PolyStyle>
			<color>33ffffff</color>
		</PolyStyle>
	</Style>
	<Style id="sh_ylw-pushpin309">
		<IconStyle>
			<scale>1.3</scale>
			<Icon>
				<href>http://maps.google.com/mapfiles/kml/pushpin/ylw-pushpin.png</href>
			</Icon>
			<hotSpot x="20" y="2" xunits="pixels" yunits="pixels"/>
		</IconStyle>
		<PolyStyle>
			<color>33ffffff</color>
		</PolyStyle>
	</Style>
	<Style id="sn_ylw-pushpin1">
		<IconStyle>
			<scale>1.1</scale>
			<Icon>
				<href>http://maps.google.com/mapfiles/kml/pushpin/ylw-pushpin.png</href>
			</Icon>
			<hotSpot x="20" y="2" xunits="pixels" yunits="pixels"/>
		</IconStyle>
		<PolyStyle>
			<color>33ffffff</color>
		</PolyStyle>
	</Style>
	<Style id="sn_ylw-pushpin300">
		<IconStyle>
			<scale>1.1</scale>
			<Icon>
				<href>http://maps.google.com/mapfiles/kml/pushpin/ylw-pushpin.png</href>
			</Icon>
			<hotSpot x="20" y="2" xunits="pixels" yunits="pixels"/>
		</IconStyle>
		<PolyStyle>
			<color>33ffffff</color>
		</PolyStyle>
	</Style>
	<Folder>
		<name>EPNC</name>
		<Folder>
			<name>Base</name>
			<Placemark>
				<name>Base</name>
				<styleUrl>#msn_ylw-pushpin227</styleUrl>
				<Polygon>
					<tessellate>1</tessellate>
					<outerBoundaryIs>
						<LinearRing>
							<coordinates>
								20.8671679526227,52.5715422104422,0 20.8772976937609,52.56693814381394,0 20.87799018095257,52.56753928499807,0 20.87894085818387,52.56802393659061,0 20.87928532704602,52.56817402408595,0 20.87979563968245,52.56863502308867,0 20.88018953566073,52.56897075885664,0 20.88044051871564,52.56915702741878,0 20.88065564612589,52.56936184546962,0 20.88081243416406,52.56959097950197,0 20.8808235374332,52.56978009546961,0 20.88080472301896,52.56995540055723,0 20.88082785166873,52.57019293478399,0 20.88077826813178,52.57031390615623,0 20.87953351318177,52.57221233860461,0 20.87948748471617,52.57240961438164,0 20.87952681483471,52.57255237821736,0 20.87981394295209,52.5730652698239,0 20.88021057909692,52.57379064207764,0 20.88061803265895,52.57468663990636,0 20.88146169133841,52.57543546127706,0 20.88144651371509,52.57547482044905,0 20.86381299068292,52.57826817028366,0 20.86302480587514,52.57954869939688,0 20.86105475572301,52.57842057271057,0 20.86244081512718,52.57587685511044,0 20.86270545471211,52.57438119579413,0 20.86273194102335,52.57416761670569,0 20.86300199746442,52.57213806494299,0 20.86356356663419,52.57208280209293,0 20.8637214095056,52.57266468348403,0 20.86377574647387,52.57302689104403,0 20.86496507253582,52.57315355837459,0 20.86524899669047,52.57275842910863,0 20.86558635332445,52.5722446900427,0 20.86579311045205,52.572107762145,0 20.8660954674433,52.57200724659555,0 20.86650771825129,52.57173309539072,0 20.8671679526227,52.5715422104422,0 
							</coordinates>
						</LinearRing>
					</outerBoundaryIs>
				</Polygon>
			</Placemark>
		</Folder>
		<Folder>
			<name>RWY Grass</name>
			<Placemark>
				<name>Runway 28/10</name>
				<styleUrl>#msn_ylw-pushpin46</styleUrl>
				<Polygon>
					<tessellate>1</tessellate>
					<outerBoundaryIs>
						<LinearRing>
							<coordinates>
								20.87783119900065,52.5727346767721,0 20.87804659077013,52.57318186857525,0 20.8660780801422,52.57525549711663,0 20.86586684987608,52.57480820389119,0 20.87783119900065,52.5727346767721,0 
							</coordinates>
						</LinearRing>
					</outerBoundaryIs>
				</Polygon>
			</Placemark>
			<Placemark>
				<name>Runway 31/13</name>
				<styleUrl>#msn_ylw-pushpin46</styleUrl>
				<Polygon>
					<tessellate>1</tessellate>
					<outerBoundaryIs>
						<LinearRing>
							<coordinates>
								20.87635759294952,52.56823259455686,0 20.87713338614968,52.56858498958268,0 20.86765664083562,52.5749890927608,0 20.86699690165567,52.57461677550576,0 20.87635759294952,52.56823259455686,0 
							</coordinates>
						</LinearRing>
					</outerBoundaryIs>
				</Polygon>
			</Placemark>
		</Folder>
		<Folder>
			<name>Buildings</name>
			<Placemark>
				<name>Hangar1</name>
				<styleUrl>#msn_ylw-pushpin46</styleUrl>
				<Polygon>
					<tessellate>1</tessellate>
					<outerBoundaryIs>
						<LinearRing>
							<coordinates>
								20.86307257067084,52.57665443897997,0 20.86307327597525,52.57642772813486,0 20.86326390668647,52.57642617177314,0 20.86325709671318,52.57665325124708,0 20.86307257067084,52.57665443897997,0 
							</coordinates>
						</LinearRing>
					</outerBoundaryIs>
				</Polygon>
			</Placemark>
			<Placemark>
				<name>Hangar2</name>
				<styleUrl>#msn_ylw-pushpin46</styleUrl>
				<Polygon>
					<tessellate>1</tessellate>
					<outerBoundaryIs>
						<LinearRing>
							<coordinates>
								20.86324565532855,52.57633379515441,0 20.86324639808664,52.57641538740894,0 20.8630701452944,52.5764167240349,0 20.86306749671932,52.57633629937192,0 20.86324565532855,52.57633379515441,0 
							</coordinates>
						</LinearRing>
					</outerBoundaryIs>
				</Polygon>
			</Placemark>
			<Placemark>
				<name>Hangar3</name>
				<styleUrl>#msn_ylw-pushpin46</styleUrl>
				<Polygon>
					<tessellate>1</tessellate>
					<outerBoundaryIs>
						<LinearRing>
							<coordinates>
								20.86305848724378,52.57631527366479,0 20.86305560157775,52.57613812217095,0 20.8632417632792,52.57613877530614,0 20.86324236455439,52.57631485599745,0 20.86305848724378,52.57631527366479,0 
							</coordinates>
						</LinearRing>
					</outerBoundaryIs>
				</Polygon>
			</Placemark>
			<Placemark>
				<name>Hangar4</name>
				<styleUrl>#msn_ylw-pushpin46</styleUrl>
				<Polygon>
					<tessellate>1</tessellate>
					<outerBoundaryIs>
						<LinearRing>
							<coordinates>
								20.8627537312618,52.57581299498894,0 20.86337135331512,52.5758091682355,0 20.86337397211103,52.57592765942856,0 20.86274836285494,52.5759261715655,0 20.8627537312618,52.57581299498894,0 
							</coordinates>
						</LinearRing>
					</outerBoundaryIs>
				</Polygon>
			</Placemark>
			<Placemark>
				<name>Hangar5</name>
				<styleUrl>#msn_ylw-pushpin46</styleUrl>
				<Polygon>
					<tessellate>1</tessellate>
					<outerBoundaryIs>
						<LinearRing>
							<coordinates>
								20.86283964836903,52.57494918363617,0 20.86285036265316,52.57482691911805,0 20.86308699847221,52.57483361799214,0 20.86307733524611,52.57495897406919,0 20.86283964836903,52.57494918363617,0 
							</coordinates>
						</LinearRing>
					</outerBoundaryIs>
				</Polygon>
			</Placemark>
			<Placemark>
				<name>Hangar6</name>
				<styleUrl>#msn_ylw-pushpin46</styleUrl>
				<Polygon>
					<tessellate>1</tessellate>
					<outerBoundaryIs>
						<LinearRing>
							<coordinates>
								20.8628614511156,52.57468464979849,0 20.86309878417898,52.57469256072118,0 20.86309148663501,52.57481353590265,0 20.86285292670532,52.57480551297217,0 20.8628614511156,52.57468464979849,0 
							</coordinates>
						</LinearRing>
					</outerBoundaryIs>
				</Polygon>
			</Placemark>
			<Placemark>
				<name>Hangar7</name>
				<styleUrl>#msn_ylw-pushpin46</styleUrl>
				<Polygon>
					<tessellate>1</tessellate>
					<outerBoundaryIs>
						<LinearRing>
							<coordinates>
								20.86286824290601,52.57466223081236,0 20.8628808194944,52.57454024452532,0 20.8631061847275,52.57455065175435,0 20.86309677440304,52.57467141525653,0 20.86309894721913,52.57466877678034,0 20.86309892906339,52.57467141685648,0 20.86286824290601,52.57466223081236,0 
							</coordinates>
						</LinearRing>
					</outerBoundaryIs>
				</Polygon>
			</Placemark>
			<Placemark>
				<name>Hanga8</name>
				<styleUrl>#msn_ylw-pushpin46</styleUrl>
				<Polygon>
					<tessellate>1</tessellate>
					<outerBoundaryIs>
						<LinearRing>
							<coordinates>
								20.86287687838722,52.5745193777586,0 20.86288967717317,52.57439890988319,0 20.86313473691485,52.57441056906967,0 20.86312131370463,52.57452848679611,0 20.86287687838722,52.5745193777586,0 
							</coordinates>
						</LinearRing>
					</outerBoundaryIs>
				</Polygon>
			</Placemark>
			<Placemark>
				<name>Hangar9</name>
				<styleUrl>#msn_ylw-pushpin46</styleUrl>
				<Polygon>
					<tessellate>1</tessellate>
					<outerBoundaryIs>
						<LinearRing>
							<coordinates>
								20.8628954804425,52.57437862381216,0 20.86290536666226,52.57425996343257,0 20.8629053236291,52.57426382433931,0 20.86291178122154,52.57425997530696,0 20.86314368213218,52.57426918427939,0 20.86312987470917,52.57437994031304,0 20.86313191217475,52.57438769111906,0 20.8628954804425,52.57437862381216,0 
							</coordinates>
						</LinearRing>
					</outerBoundaryIs>
				</Polygon>
			</Placemark>
			<Placemark>
				<name>Hangar10</name>
				<styleUrl>#msn_ylw-pushpin46</styleUrl>
				<Polygon>
					<tessellate>1</tessellate>
					<outerBoundaryIs>
						<LinearRing>
							<coordinates>
								20.86313759299139,52.57424353946168,0 20.86290793717834,52.5742330012073,0 20.86291852213254,52.57411161205864,0 20.86315150410779,52.57412093863239,0 20.86313759299139,52.57424353946168,0 
							</coordinates>
						</LinearRing>
					</outerBoundaryIs>
				</Polygon>
			</Placemark>
			<Placemark>
				<name>Building1</name>
				<styleUrl>#msn_ylw-pushpin46</styleUrl>
				<Polygon>
					<tessellate>1</tessellate>
					<outerBoundaryIs>
						<LinearRing>
							<coordinates>
								20.86300588674584,52.57397300348164,0 20.86301919461968,52.57383572585211,0 20.86316366234416,52.57384229291913,0 20.86314902028938,52.57397964333738,0 20.86300588674584,52.57397300348164,0 
							</coordinates>
						</LinearRing>
					</outerBoundaryIs>
				</Polygon>
			</Placemark>
			<Placemark>
				<name>Building2</name>
				<styleUrl>#msn_ylw-pushpin46</styleUrl>
				<Polygon>
					<tessellate>1</tessellate>
					<outerBoundaryIs>
						<LinearRing>
							<coordinates>
								20.86312386714657,52.57303592123797,0 20.8631279396959,52.57303592362594,0 20.86330027199448,52.57304448465005,0 20.86320122969084,52.57365573079384,0 20.86302652224929,52.57364902005373,0 20.86312386714657,52.57303592123797,0 
							</coordinates>
						</LinearRing>
					</outerBoundaryIs>
				</Polygon>
			</Placemark>
			<Placemark>
				<name>Building3</name>
				<styleUrl>#msn_ylw-pushpin46</styleUrl>
				<Polygon>
					<tessellate>1</tessellate>
					<outerBoundaryIs>
						<LinearRing>
							<coordinates>
								20.86615745610672,52.57329338184961,0 20.8661307130418,52.57319516547978,0 20.86598334342033,52.57320857873468,0 20.86596261717593,52.5731131749604,0 20.86623980894775,52.57308513311485,0 20.86623332024103,52.57306832028867,0 20.86633849603223,52.57305894321354,0 20.86631761520434,52.57297959927566,0 20.86659409736689,52.57294239815187,0 20.86665379923084,52.57313519059041,0 20.8664887961069,52.57315316690094,0 20.86649282098599,52.57316698658077,0 20.86637539566226,52.57318321591388,0 20.86636217589968,52.57314681326419,0 20.86624215250925,52.57315741781874,0 20.86627453311543,52.57328095298065,0 20.86615745610672,52.57329338184961,0 
							</coordinates>
						</LinearRing>
					</outerBoundaryIs>
				</Polygon>
			</Placemark>
			<Placemark>
				<name>Building4</name>
				<styleUrl>#msn_ylw-pushpin46</styleUrl>
				<Polygon>
					<tessellate>1</tessellate>
					<outerBoundaryIs>
						<LinearRing>
							<coordinates>
								20.8659880815025,52.57310149785351,0 20.86597107781996,52.57300445698309,0 20.86618961649497,52.57298123455964,0 20.86622091019217,52.57307823667417,0 20.8659880815025,52.57310149785351,0 
							</coordinates>
						</LinearRing>
					</outerBoundaryIs>
				</Polygon>
			</Placemark>
		</Folder>
		<Folder>
			<name>Roads</name>
			<Placemark>
				<name>Road1</name>
				<styleUrl>#m_ylw-pushpin4</styleUrl>
				<LineString>
					<tessellate>1</tessellate>
					<coordinates>
						20.86350564138557,52.57209223679963,0 20.86375672627641,52.57303679827682,0 20.8638802039227,52.57305039804661,0 20.86509889843936,52.57318865782482,0 20.86513441145823,52.57316714427235,0 20.86516235650178,52.57313624806612,0 20.86534242349748,52.57283698779053,0 20.86556206538394,52.57251916403749,0 20.86563513312434,52.57243955321669,0 20.86571107985682,52.57240561383302,0 20.86578215050418,52.57238382333536,0 20.86586676751878,52.57237826218774,0 20.86597010926536,52.57238921180843,0 20.86605077971862,52.57240660203789,0 20.86613483387098,52.57244091522721,0 20.86622183955679,52.57246924238112,0 20.86617814592586,52.57250354279498,0 20.86600214734707,52.57243924446701,0 20.86591124411596,52.57241884702345,0 20.86581853661625,52.57241682836437,0 20.86574459119544,52.57243573873469,0 20.86569379676232,52.57245129562907,0 20.86565348372315,52.57249111058858,0 20.86539072048537,52.57284002211976,0 20.86528426646669,52.57303910137862,0 20.86524617143748,52.57314921345522,0 20.86526910960422,52.57316806539498,0 20.86529464821596,52.57318697543065,0 20.86534074139534,52.57321391359478,0 20.86584967950306,52.57327658090456,0 20.86595197571827,52.57326941457168,0 20.86595719899373,52.57328976409146,0 20.86610958530194,52.57327540487226,0 20.86613531510179,52.57335823863263,0 20.86609636393792,52.57336010606984,0 20.86382189963044,52.57310366564805,0 20.86379102112379,52.5731109555162,0 20.86377019325742,52.57312347841902,0 20.86376085950862,52.57314860962611,0 20.86375455066851,52.57345886086198,0 20.86372699559803,52.57359035168687,0 20.86364745680142,52.57377250926266,0 20.863602171837,52.57388725720349,0 20.86354869000216,52.5740721211749,0 20.8635000486118,52.57430992515913,0 20.86348220280429,52.57448046263853,0 20.86348510688379,52.57468743685818,0 20.86349666590091,52.57488568952312,0 20.86349730266581,52.57515145544642,0 20.86349846390008,52.57534991451357,0 20.86350395018755,52.57563202392028,0 20.86351145203004,52.57585095719155,0 20.86350176247074,52.5760104829893,0 20.86350288189669,52.57616065461131,0 20.86350330397596,52.57629118780851,0 20.86350611084656,52.57645741511007,0 20.86350137562536,52.57663525413702,0 20.86350048368286,52.57678916155703,0 20.8634307288706,52.57676341495838,0 20.86343556160763,52.5767061192494,0 20.86344443914277,52.57623734452242,0 20.86344510005822,52.57578682763753,0 20.8634408168582,52.57508476041697,0 20.86343471915318,52.57491012237817,0 20.86342997992088,52.57477625756776,0 20.86342385168064,52.57461501430129,0 20.86342225703111,52.57445043836677,0 20.86344213519906,52.57429715411266,0 20.86347402169175,52.57415504989608,0 20.86351960525877,52.57391959624903,0 20.86356452127581,52.5738105041219,0 20.8636162229886,52.57366633125488,0 20.8636490082662,52.57357390420969,0 20.86367837624327,52.57345595672615,0 20.86368804729838,52.5733225938052,0 20.8636856245562,52.57318869510357,0 20.86368887669579,52.57307058709455,0 20.86367876009542,52.57299473746236,0 20.863612900048,52.572751840786,0 20.86356323171455,52.57252312439662,0 20.8634511085065,52.57209774333413,0 
					</coordinates>
				</LineString>
			</Placemark>
		</Folder>
		<Folder>
			<name>BuildingLabels</name>
			<Placemark>
				<name>Hangars</name>
				<LookAt>
					<longitude>20.8643594815499</longitude>
					<latitude>52.5761445906507</latitude>
					<altitude>0</altitude>
					<heading>-0.000133459179069171</heading>
					<tilt>24.41414015643936</tilt>
					<range>256.6968381763173</range>
					<gx:altitudeMode>relativeToSeaFloor</gx:altitudeMode>
				</LookAt>
				<styleUrl>#m_ylw-pushpin01</styleUrl>
				<Point>
					<gx:drawOrder>1</gx:drawOrder>
					<coordinates>20.86358621842961,52.57637841256274,0</coordinates>
				</Point>
			</Placemark>
			<Placemark>
				<name>Hangars</name>
				<LookAt>
					<longitude>20.86622681619595</longitude>
					<latitude>52.57503112332052</latitude>
					<altitude>0</altitude>
					<heading>0.001349964687028333</heading>
					<tilt>24.41644988111985</tilt>
					<range>878.8951270649742</range>
					<gx:altitudeMode>relativeToSeaFloor</gx:altitudeMode>
				</LookAt>
				<styleUrl>#m_ylw-pushpin01</styleUrl>
				<Point>
					<gx:drawOrder>1</gx:drawOrder>
					<coordinates>20.86363964094138,52.57448346578603,0</coordinates>
				</Point>
			</Placemark>
			<Placemark>
				<name>Hangar</name>
				<LookAt>
					<longitude>20.8664355630608</longitude>
					<latitude>52.57431785493296</latitude>
					<altitude>0</altitude>
					<heading>0.001515735438870233</heading>
					<tilt>24.41644988111983</tilt>
					<range>878.8951270625978</range>
					<gx:altitudeMode>relativeToSeaFloor</gx:altitudeMode>
				</LookAt>
				<styleUrl>#m_ylw-pushpin01</styleUrl>
				<Point>
					<gx:drawOrder>1</gx:drawOrder>
					<coordinates>20.86624017296127,52.57261326311002,0</coordinates>
				</Point>
			</Placemark>
		</Folder>
		<Folder>
			<name>TaxiwayLabels</name>
			<open>1</open>
			<Placemark>
				<name>31</name>
				<LookAt>
					<longitude>20.87508732538909</longitude>
					<latitude>52.57379306794797</latitude>
					<altitude>0</altitude>
					<heading>0.003040774279657901</heading>
					<tilt>0</tilt>
					<range>2163.9527503869</range>
					<gx:altitudeMode>relativeToSeaFloor</gx:altitudeMode>
				</LookAt>
				<styleUrl>#m_ylw-pushpin</styleUrl>
				<Point>
					<gx:drawOrder>1</gx:drawOrder>
					<coordinates>20.8764284178672,52.56857073724129,0</coordinates>
				</Point>
			</Placemark>
			<Placemark>
				<name>13</name>
				<LookAt>
					<longitude>20.87508732538909</longitude>
					<latitude>52.57379306794797</latitude>
					<altitude>0</altitude>
					<heading>0.003040774279657901</heading>
					<tilt>0</tilt>
					<range>2163.9527503869</range>
					<gx:altitudeMode>relativeToSeaFloor</gx:altitudeMode>
				</LookAt>
				<styleUrl>#m_ylw-pushpin</styleUrl>
				<Point>
					<gx:drawOrder>1</gx:drawOrder>
					<coordinates>20.86771543313521,52.57452602598251,0</coordinates>
				</Point>
			</Placemark>
			<Placemark>
				<name>28</name>
				<LookAt>
					<longitude>20.87508732538909</longitude>
					<latitude>52.57379306794797</latitude>
					<altitude>0</altitude>
					<heading>0.003040774279657901</heading>
					<tilt>0</tilt>
					<range>2163.9527503869</range>
					<gx:altitudeMode>relativeToSeaFloor</gx:altitudeMode>
				</LookAt>
				<styleUrl>#m_ylw-pushpin</styleUrl>
				<Point>
					<gx:drawOrder>1</gx:drawOrder>
					<coordinates>20.87751432320858,52.57302337441779,0</coordinates>
				</Point>
			</Placemark>
			<Placemark>
				<name>10</name>
				<LookAt>
					<longitude>20.87508732538909</longitude>
					<latitude>52.57379306794797</latitude>
					<altitude>0</altitude>
					<heading>0.003040774279657901</heading>
					<tilt>0</tilt>
					<range>2163.9527503869</range>
					<gx:altitudeMode>relativeToSeaFloor</gx:altitudeMode>
				</LookAt>
				<styleUrl>#m_ylw-pushpin</styleUrl>
				<Point>
					<gx:drawOrder>1</gx:drawOrder>
					<coordinates>20.86632839902104,52.57492910314344,0</coordinates>
				</Point>
			</Placemark>
		</Folder>
		<atom:link rel="app" href="https://www.google.com/earth/about/versions/#earth-pro" title="Google Earth Pro 7.3.7.1155"></atom:link>
	</Folder>
</Document>
</kml>
