<?xml version="1.0" encoding="UTF-8"?>
<kml xmlns="http://www.opengis.net/kml/2.2" xmlns:gx="http://www.google.com/kml/ext/2.2" xmlns:kml="http://www.opengis.net/kml/2.2" xmlns:atom="http://www.w3.org/2005/Atom">
<Document>
	<name>EPPT.kml</name>
	<StyleMap id="m_ylw-pushpin">
		<Pair>
			<key>normal</key>
			<styleUrl>#s_ylw-pushpin</styleUrl>
		</Pair>
		<Pair>
			<key>highlight</key>
			<styleUrl>#s_ylw-pushpin_hl</styleUrl>
		</Pair>
	</StyleMap>
	<StyleMap id="m_ylw-pushpin02">
		<Pair>
			<key>normal</key>
			<styleUrl>#s_ylw-pushpin01</styleUrl>
		</Pair>
		<Pair>
			<key>highlight</key>
			<styleUrl>#s_ylw-pushpin_hl10</styleUrl>
		</Pair>
	</StyleMap>
	<StyleMap id="m_ylw-pushpin100">
		<Pair>
			<key>normal</key>
			<styleUrl>#s_ylw-pushpin102</styleUrl>
		</Pair>
		<Pair>
			<key>highlight</key>
			<styleUrl>#s_ylw-pushpin_hl6</styleUrl>
		</Pair>
	</StyleMap>
	<StyleMap id="m_ylw-pushpin2">
		<Pair>
			<key>normal</key>
			<styleUrl>#s_ylw-pushpin21</styleUrl>
		</Pair>
		<Pair>
			<key>highlight</key>
			<styleUrl>#s_ylw-pushpin_hl00</styleUrl>
		</Pair>
	</StyleMap>
	<StyleMap id="msn_ylw-pushpin000">
		<Pair>
			<key>normal</key>
			<styleUrl>#sn_ylw-pushpin005</styleUrl>
		</Pair>
		<Pair>
			<key>highlight</key>
			<styleUrl>#sh_ylw-pushpin10</styleUrl>
		</Pair>
	</StyleMap>
	<StyleMap id="msn_ylw-pushpin01">
		<Pair>
			<key>normal</key>
			<styleUrl>#sn_ylw-pushpin20</styleUrl>
		</Pair>
		<Pair>
			<key>highlight</key>
			<styleUrl>#sh_ylw-pushpin23</styleUrl>
		</Pair>
	</StyleMap>
	<StyleMap id="msn_ylw-pushpin146">
		<Pair>
			<key>normal</key>
			<styleUrl>#sn_ylw-pushpin5</styleUrl>
		</Pair>
		<Pair>
			<key>highlight</key>
			<styleUrl>#sh_ylw-pushpin4</styleUrl>
		</Pair>
	</StyleMap>
	<StyleMap id="msn_ylw-pushpin28">
		<Pair>
			<key>normal</key>
			<styleUrl>#sn_ylw-pushpin0</styleUrl>
		</Pair>
		<Pair>
			<key>highlight</key>
			<styleUrl>#sh_ylw-pushpin</styleUrl>
		</Pair>
	</StyleMap>
	<StyleMap id="msn_ylw-pushpin3">
		<Pair>
			<key>normal</key>
			<styleUrl>#sn_ylw-pushpin31</styleUrl>
		</Pair>
		<Pair>
			<key>highlight</key>
			<styleUrl>#sh_ylw-pushpin1</styleUrl>
		</Pair>
	</StyleMap>
	<Style id="s_ylw-pushpin">
		<IconStyle>
			<scale>1.1</scale>
			<Icon>
				<href>http://maps.google.com/mapfiles/kml/pushpin/ylw-pushpin.png</href>
			</Icon>
			<hotSpot x="20" y="2" xunits="pixels" yunits="pixels"/>
		</IconStyle>
	</Style>
	<Style id="s_ylw-pushpin01">
		<IconStyle>
			<scale>1.1</scale>
			<Icon>
				<href>http://maps.google.com/mapfiles/kml/pushpin/ylw-pushpin.png</href>
			</Icon>
			<hotSpot x="20" y="2" xunits="pixels" yunits="pixels"/>
		</IconStyle>
	</Style>
	<Style id="s_ylw-pushpin102">
		<IconStyle>
			<scale>1.1</scale>
			<Icon>
				<href>http://maps.google.com/mapfiles/kml/pushpin/ylw-pushpin.png</href>
			</Icon>
			<hotSpot x="20" y="2" xunits="pixels" yunits="pixels"/>
		</IconStyle>
		<LineStyle>
			<color>ff0affff</color>
		</LineStyle>
	</Style>
	<Style id="s_ylw-pushpin21">
		<IconStyle>
			<scale>1.1</scale>
			<Icon>
				<href>http://maps.google.com/mapfiles/kml/pushpin/ylw-pushpin.png</href>
			</Icon>
			<hotSpot x="20" y="2" xunits="pixels" yunits="pixels"/>
		</IconStyle>
		<PolyStyle>
			<color>33ffffff</color>
		</PolyStyle>
	</Style>
	<Style id="s_ylw-pushpin_hl">
		<IconStyle>
			<scale>1.3</scale>
			<Icon>
				<href>http://maps.google.com/mapfiles/kml/pushpin/ylw-pushpin.png</href>
			</Icon>
			<hotSpot x="20" y="2" xunits="pixels" yunits="pixels"/>
		</IconStyle>
	</Style>
	<Style id="s_ylw-pushpin_hl00">
		<IconStyle>
			<scale>1.3</scale>
			<Icon>
				<href>http://maps.google.com/mapfiles/kml/pushpin/ylw-pushpin.png</href>
			</Icon>
			<hotSpot x="20" y="2" xunits="pixels" yunits="pixels"/>
		</IconStyle>
		<PolyStyle>
			<color>33ffffff</color>
		</PolyStyle>
	</Style>
	<Style id="s_ylw-pushpin_hl10">
		<IconStyle>
			<scale>1.3</scale>
			<Icon>
				<href>http://maps.google.com/mapfiles/kml/pushpin/ylw-pushpin.png</href>
			</Icon>
			<hotSpot x="20" y="2" xunits="pixels" yunits="pixels"/>
		</IconStyle>
	</Style>
	<Style id="s_ylw-pushpin_hl6">
		<IconStyle>
			<scale>1.3</scale>
			<Icon>
				<href>http://maps.google.com/mapfiles/kml/pushpin/ylw-pushpin.png</href>
			</Icon>
			<hotSpot x="20" y="2" xunits="pixels" yunits="pixels"/>
		</IconStyle>
		<LineStyle>
			<color>ff0affff</color>
		</LineStyle>
	</Style>
	<Style id="sh_ylw-pushpin">
		<IconStyle>
			<scale>1.3</scale>
			<Icon>
				<href>http://maps.google.com/mapfiles/kml/pushpin/ylw-pushpin.png</href>
			</Icon>
			<hotSpot x="20" y="2" xunits="pixels" yunits="pixels"/>
		</IconStyle>
		<LineStyle>
			<color>ff0701fc</color>
		</LineStyle>
	</Style>
	<Style id="sh_ylw-pushpin1">
		<IconStyle>
			<scale>1.3</scale>
			<Icon>
				<href>http://maps.google.com/mapfiles/kml/pushpin/ylw-pushpin.png</href>
			</Icon>
			<hotSpot x="20" y="2" xunits="pixels" yunits="pixels"/>
		</IconStyle>
		<LineStyle>
			<color>ff0701fc</color>
		</LineStyle>
	</Style>
	<Style id="sh_ylw-pushpin10">
		<IconStyle>
			<scale>1.3</scale>
			<Icon>
				<href>http://maps.google.com/mapfiles/kml/pushpin/ylw-pushpin.png</href>
			</Icon>
			<hotSpot x="20" y="2" xunits="pixels" yunits="pixels"/>
		</IconStyle>
		<PolyStyle>
			<color>33ffffff</color>
		</PolyStyle>
	</Style>
	<Style id="sh_ylw-pushpin23">
		<IconStyle>
			<scale>1.3</scale>
			<Icon>
				<href>http://maps.google.com/mapfiles/kml/pushpin/ylw-pushpin.png</href>
			</Icon>
			<hotSpot x="20" y="2" xunits="pixels" yunits="pixels"/>
		</IconStyle>
	</Style>
	<Style id="sh_ylw-pushpin4">
		<IconStyle>
			<scale>1.3</scale>
			<Icon>
				<href>http://maps.google.com/mapfiles/kml/pushpin/ylw-pushpin.png</href>
			</Icon>
			<hotSpot x="20" y="2" xunits="pixels" yunits="pixels"/>
		</IconStyle>
		<LineStyle>
			<color>ff0701fc</color>
			<width>3</width>
		</LineStyle>
	</Style>
	<Style id="sn_ylw-pushpin0">
		<IconStyle>
			<scale>1.1</scale>
			<Icon>
				<href>http://maps.google.com/mapfiles/kml/pushpin/ylw-pushpin.png</href>
			</Icon>
			<hotSpot x="20" y="2" xunits="pixels" yunits="pixels"/>
		</IconStyle>
		<LineStyle>
			<color>ff0701fc</color>
		</LineStyle>
	</Style>
	<Style id="sn_ylw-pushpin005">
		<IconStyle>
			<scale>1.1</scale>
			<Icon>
				<href>http://maps.google.com/mapfiles/kml/pushpin/ylw-pushpin.png</href>
			</Icon>
			<hotSpot x="20" y="2" xunits="pixels" yunits="pixels"/>
		</IconStyle>
		<PolyStyle>
			<color>33ffffff</color>
		</PolyStyle>
	</Style>
	<Style id="sn_ylw-pushpin20">
		<IconStyle>
			<scale>1.1</scale>
			<Icon>
				<href>http://maps.google.com/mapfiles/kml/pushpin/ylw-pushpin.png</href>
			</Icon>
			<hotSpot x="20" y="2" xunits="pixels" yunits="pixels"/>
		</IconStyle>
	</Style>
	<Style id="sn_ylw-pushpin31">
		<IconStyle>
			<scale>1.1</scale>
			<Icon>
				<href>http://maps.google.com/mapfiles/kml/pushpin/ylw-pushpin.png</href>
			</Icon>
			<hotSpot x="20" y="2" xunits="pixels" yunits="pixels"/>
		</IconStyle>
		<LineStyle>
			<color>ff0701fc</color>
		</LineStyle>
	</Style>
	<Style id="sn_ylw-pushpin5">
		<IconStyle>
			<scale>1.1</scale>
			<Icon>
				<href>http://maps.google.com/mapfiles/kml/pushpin/ylw-pushpin.png</href>
			</Icon>
			<hotSpot x="20" y="2" xunits="pixels" yunits="pixels"/>
		</IconStyle>
		<LineStyle>
			<color>ff0701fc</color>
			<width>3</width>
		</LineStyle>
	</Style>
	<Folder>
		<name>EPPT</name>
		<Folder>
			<name>Base</name>
			<Placemark>
				<name>Base</name>
				<styleUrl>#msn_ylw-pushpin000</styleUrl>
				<Polygon>
					<tessellate>1</tessellate>
					<outerBoundaryIs>
						<LinearRing>
							<coordinates>
								19.68551642943736,51.3780575631209,0 19.68683071675284,51.3792178354693,0 19.69020463339728,51.37916200739948,0 19.69050093935983,51.38097895358658,0 19.69094343023715,51.38330937822891,0 19.69330907931622,51.38541251322062,0 19.69413691246933,51.38625366304105,0 19.69458632555309,51.38832642884778,0 19.69309213591136,51.3885695436706,0 19.68922087104009,51.38768714813027,0 19.68868769515247,51.38602876709764,0 19.68310534912268,51.3862272926393,0 19.68301357624476,51.38555983595976,0 19.68300031361041,51.38464456468589,0 19.68304703523702,51.38397990019676,0 19.68294104405944,51.38343725644096,0 19.68285728071616,51.38346241368893,0 19.68211261869867,51.38156648024129,0 19.68176746957437,51.38048780110748,0 19.68145894285592,51.37925868846738,0 19.6813698720589,51.37872719945438,0 19.68551642943736,51.3780575631209,0 
							</coordinates>
						</LinearRing>
					</outerBoundaryIs>
				</Polygon>
			</Placemark>
		</Folder>
		<Folder>
			<name>RWY</name>
			<Placemark>
				<name>RWY 03/21L</name>
				<styleUrl>#msn_ylw-pushpin000</styleUrl>
				<Polygon>
					<tessellate>1</tessellate>
					<outerBoundaryIs>
						<LinearRing>
							<coordinates>
								19.69226411545801,51.3861681787438,0 19.69204187408947,51.38624688998347,0 19.68479973221029,51.3789667565273,0 19.68502391348863,51.37888389931053,0 19.69226411545801,51.3861681787438,0 
							</coordinates>
						</LinearRing>
					</outerBoundaryIs>
				</Polygon>
			</Placemark>
		</Folder>
		<Folder>
			<name>RWY Grass</name>
			<Placemark>
				<name>RWY 03/21R</name>
				<styleUrl>#msn_ylw-pushpin000</styleUrl>
				<Polygon>
					<tessellate>1</tessellate>
					<outerBoundaryIs>
						<LinearRing>
							<coordinates>
								19.68593923088045,51.37954798820411,0 19.68668660781815,51.37928004355412,0 19.69324640961906,51.38586124780987,0 19.69247076454428,51.38613274034795,0 19.68593923088045,51.37954798820411,0 
							</coordinates>
						</LinearRing>
					</outerBoundaryIs>
				</Polygon>
			</Placemark>
		</Folder>
		<Folder>
			<name>TWY</name>
			<Placemark>
				<name>A</name>
				<styleUrl>#msn_ylw-pushpin000</styleUrl>
				<Polygon>
					<tessellate>1</tessellate>
					<outerBoundaryIs>
						<LinearRing>
							<coordinates>
								19.69146403281857,51.38566862601245,0 19.69134225854527,51.38571648946493,0 19.69120375451856,51.38576500022631,0 19.6910351551947,51.38581552331946,0 19.69071543940692,51.3858708577386,0 19.6904512808542,51.38587225926207,0 19.68963467928032,51.38581479909973,0 19.68655828202948,51.38558672676501,0 19.68580727602192,51.38553083043362,0 19.68568455248432,51.38552668081555,0 19.68512362056163,51.3855445297164,0 19.68431138281361,51.38556456495777,0 19.68430012753494,51.38549870714673,0 19.68479378911116,51.38548486104639,0 19.68540253689698,51.38546888953579,0 19.68568892695697,51.38546054113353,0 19.68623073376271,51.38549537700058,0 19.69029399702228,51.38579506099929,0 19.69048065617292,51.38580626776579,0 19.69056158261849,51.38580837261621,0 19.69072593946624,51.38580134920247,0 19.69084506424707,51.38578869031766,0 19.69096316950815,51.38576412292905,0 19.69107005252129,51.38573393171847,0 19.69114787931214,51.3857085981357,0 19.69128458686636,51.38566418759869,0 19.69141073929286,51.38561145883107,0 19.69146403281857,51.38566862601245,0 
							</coordinates>
						</LinearRing>
					</outerBoundaryIs>
				</Polygon>
			</Placemark>
		</Folder>
		<Folder>
			<name>TWY Grass</name>
			<Placemark>
				<name>B</name>
				<styleUrl>#msn_ylw-pushpin000</styleUrl>
				<Polygon>
					<tessellate>1</tessellate>
					<outerBoundaryIs>
						<LinearRing>
							<coordinates>
								19.69034473524894,51.38579717768248,0 19.69039105480362,51.38577417493001,0 19.69042541102382,51.38573502019055,0 19.69041115289685,51.3856744818138,0 19.69031768084541,51.38552373045372,0 19.69025217748505,51.3854426885126,0 19.69003931422531,51.38518497257907,0 19.68986659946558,51.38500293826641,0 19.68443747102444,51.37959751919185,0 19.6843253471433,51.37947565610046,0 19.68425873723743,51.37936520483046,0 19.68426103444416,51.3792505922923,0 19.68435921955094,51.37920788505023,0 19.68485811303526,51.37901943022182,0 19.6849331044778,51.37908751730517,0 19.68456436231794,51.37921995239934,0 19.68444724409847,51.37926905717018,0 19.68441114167516,51.37931857884375,0 19.68442724888415,51.37938721101541,0 19.68448164149127,51.3794790316735,0 19.69010253664665,51.38513978379889,0 19.69031199004415,51.38535457737392,0 19.69043559517871,51.38549112601333,0 19.69050460935064,51.38559533748051,0 19.6905482288165,51.38567649135134,0 19.69057810125488,51.38573949453149,0 19.69060682964131,51.38577626590795,0 19.69065055904561,51.38580272846717,0 19.69050467804147,51.38580320113431,0 19.69034473524894,51.38579717768248,0 
							</coordinates>
						</LinearRing>
					</outerBoundaryIs>
				</Polygon>
			</Placemark>
		</Folder>
		<Folder>
			<name>APN</name>
			<Placemark>
				<name>APN1</name>
				<styleUrl>#m_ylw-pushpin2</styleUrl>
				<Polygon>
					<tessellate>1</tessellate>
					<outerBoundaryIs>
						<LinearRing>
							<coordinates>
								19.68472639615976,51.38555395972428,0 19.68435790435921,51.3857482762485,0 19.68435955211252,51.38576120617709,0 19.68428044593795,51.38576765835794,0 19.68428993612774,51.38580812138668,0 19.68418020888002,51.38581629139616,0 19.6841663428346,51.38571801176617,0 19.68383865757991,51.38572454347339,0 19.68383518494559,51.38565592918145,0 19.68362815491388,51.38565884978031,0 19.6835957460771,51.38522499403314,0 19.68355082054171,51.38522629131132,0 19.68354584573099,51.38506594572091,0 19.6833932701435,51.38506609368903,0 19.68338123223843,51.38488485830867,0 19.6837910070364,51.38488054067084,0 19.68380820210865,51.38523443595938,0 19.68426294133108,51.38521840312431,0 19.68431226659816,51.3855635707873,0 19.68472639615976,51.38555395972428,0 
							</coordinates>
						</LinearRing>
					</outerBoundaryIs>
				</Polygon>
			</Placemark>
			<Placemark>
				<name>APN2</name>
				<styleUrl>#m_ylw-pushpin2</styleUrl>
				<Polygon>
					<tessellate>1</tessellate>
					<outerBoundaryIs>
						<LinearRing>
							<coordinates>
								19.68527689650079,51.38588993073405,0 19.68519683867376,51.38591384048708,0 19.68520006094999,51.38594106728757,0 19.68441875806546,51.38596873310938,0 19.68441731011802,51.38593894210299,0 19.6845408120936,51.38593517885314,0 19.68453584557937,51.38589224002779,0 19.68441246689194,51.38589597393358,0 19.68441016787986,51.38584855122142,0 19.68501608629672,51.38582945268828,0 19.68507611071743,51.38579922091157,0 19.68507016227234,51.38577542989487,0 19.68503655775567,51.38577117772821,0 19.68498976985913,51.38576628123907,0 19.68494976398226,51.38575698973913,0 19.68491559141406,51.38574702468911,0 19.68488285920128,51.38573500009327,0 19.68485385033741,51.38571956500678,0 19.6848274060096,51.38570433745335,0 19.68480991714175,51.38568859306196,0 19.68479813748792,51.38567035717081,0 19.68478886221623,51.38564912105867,0 19.68477562043723,51.38562833173105,0 19.6847722033721,51.385603479811,0 19.68477168391099,51.38558228316091,0 19.68477292149241,51.38556514414823,0 19.68477575017863,51.38555366755322,0 19.68568264567421,51.38552679519947,0 19.68580832534576,51.38553104120913,0 19.68618626329364,51.38555971447955,0 19.68610649536324,51.38557861447326,0 19.68603150660572,51.38560508225331,0 19.68599114097756,51.38562191914165,0 19.68596312258992,51.38563486818893,0 19.68593905937746,51.38564795126717,0 19.68591906476893,51.38566047023713,0 19.68588513951407,51.38568306314303,0 19.68585491874522,51.38570609452359,0 19.68583575155473,51.38572296274759,0 19.68581718307489,51.38574231955594,0 19.68580465337919,51.38575515697411,0 19.68578772780379,51.38577582707375,0 19.68577544729312,51.38579370575539,0 19.68576435879888,51.38581023015004,0 19.68575696408152,51.38582447615744,0 19.68574822569111,51.38583969628115,0 19.68574279498333,51.38585589700032,0 19.68573237595625,51.38587398513385,0 19.68527689650079,51.38588993073405,0 
							</coordinates>
						</LinearRing>
					</outerBoundaryIs>
				</Polygon>
			</Placemark>
			<Placemark>
				<name>APN3</name>
				<styleUrl>#m_ylw-pushpin2</styleUrl>
				<Polygon>
					<tessellate>1</tessellate>
					<outerBoundaryIs>
						<LinearRing>
							<coordinates>
								19.68583083717626,51.3859181099651,0 19.68583194447569,51.38590083846985,0 19.68583194439855,51.38588563886263,0 19.68583858675784,51.38586491291142,0 19.68584522953295,51.38584764174114,0 19.68585629999695,51.38582484331623,0 19.68586626334164,51.3858110261064,0 19.68588074197368,51.38579582103335,0 19.68589639469208,51.3857820003406,0 19.68591421757335,51.38577095128582,0 19.68594640439424,51.38575300854302,0 19.6859774206544,51.38574404099096,0 19.68600398831331,51.38573921420386,0 19.68602503718843,51.38573232025677,0 19.68604057147559,51.38572267277135,0 19.68605276853263,51.38571233708484,0 19.68607163156101,51.38568960757795,0 19.68607833508353,51.38567033748096,0 19.68608501127639,51.38565657971397,0 19.68609389231981,51.38564213932348,0 19.6861027799028,51.38562633472912,0 19.68610946242132,51.38561123115874,0 19.6861028945433,51.38560163158683,0 19.68609522099992,51.38559409602738,0 19.68608755632744,51.38558519207714,0 19.68611399363233,51.38557692029914,0 19.68613711586309,51.38557138640793,0 19.68615913575476,51.38556584240593,0 19.68618777235228,51.385559591922,0 19.68632124877595,51.38556890002536,0 19.68630246653497,51.38557512771816,0 19.68628368502548,51.38558271529533,0 19.68626600396339,51.3855930450522,0 19.68625274705362,51.38559994494393,0 19.68624169839875,51.3856082192539,0 19.68622622771603,51.3856213162851,0 19.68621406665709,51.38563371907127,0 19.68620079305433,51.38564680740757,0 19.68619414056489,51.38565851323101,0 19.6861841711991,51.3856716041897,0 19.68617971313746,51.38568607161275,0 19.68617857693371,51.38569916877741,0 19.68618186613948,51.38570743939697,0 19.68618847316984,51.38571364082076,0 19.68620170817973,51.38572052990703,0 19.68622268499331,51.38573018162742,0 19.68624481319443,51.38572878880949,0 19.68639453379628,51.3857238539585,0 19.68642901200357,51.38572660492984,0 19.68645351301957,51.38573144242932,0 19.68647358771318,51.38573767251081,0 19.68649706421893,51.38574876349715,0 19.68651721465701,51.38575848117689,0 19.68653628766327,51.38577099226584,0 19.686553147291,51.38578351946399,0 19.68656443521625,51.3857974530063,0 19.68657455938836,51.38580999864557,0 19.68658128581809,51.38581975463093,0 19.6865857709995,51.38582881380715,0 19.68658913540889,51.38583996276459,0 19.68659362186573,51.38585250796548,0 19.68659474386694,51.38589361157491,0 19.68626354505141,51.38590394020751,0 19.68583083717626,51.3859181099651,0 
							</coordinates>
						</LinearRing>
					</outerBoundaryIs>
				</Polygon>
			</Placemark>
			<Placemark>
				<name>APN4</name>
				<styleUrl>#m_ylw-pushpin2</styleUrl>
				<Polygon>
					<tessellate>1</tessellate>
					<outerBoundaryIs>
						<LinearRing>
							<coordinates>
								19.68659575289103,51.38589222029687,0 19.68657178388579,51.38558757273979,0 19.68756315676196,51.3856611343701,0 19.68758201930061,51.38586041963697,0 19.68659575289103,51.38589222029687,0 
							</coordinates>
						</LinearRing>
					</outerBoundaryIs>
				</Polygon>
			</Placemark>
			<Placemark>
				<name>APN5</name>
				<styleUrl>#m_ylw-pushpin2</styleUrl>
				<Polygon>
					<tessellate>1</tessellate>
					<outerBoundaryIs>
						<LinearRing>
							<coordinates>
								19.68764761043066,51.38585757991776,0 19.6876420664781,51.38580315720962,0 19.68768589579696,51.38580104585297,0 19.68767458368727,51.38566898178857,0 19.68815339081358,51.3857047970245,0 19.68815673237372,51.38578634364705,0 19.68819983421142,51.38578564944158,0 19.68820441735956,51.38583957573474,0 19.68764761043066,51.38585757991776,0 
							</coordinates>
						</LinearRing>
					</outerBoundaryIs>
				</Polygon>
			</Placemark>
			<Placemark>
				<name>APN6</name>
				<styleUrl>#m_ylw-pushpin2</styleUrl>
				<Polygon>
					<tessellate>1</tessellate>
					<outerBoundaryIs>
						<LinearRing>
							<coordinates>
								19.68405258377335,51.38372580614671,0 19.68365088771566,51.3837317123267,0 19.68363929224503,51.38347988457003,0 19.68379169565267,51.38347753503237,0 19.68378021974356,51.38336802140126,0 19.68316928882331,51.3833907367888,0 19.68319783849518,51.38371982309685,0 19.6831026582146,51.383728138532,0 19.68309314058785,51.38370913000352,0 19.68305506850864,51.38371150580442,0 19.68296941094678,51.3834358801556,0 19.68293705059568,51.38342518821091,0 19.68288946298051,51.38328975225504,0 19.68309695402946,51.38325886430989,0 19.68310837573112,51.38324698390497,0 19.6831217009818,51.38323272756429,0 19.6836390419328,51.38314655483051,0 19.68350430585397,51.38281792558795,0 19.6837779751385,51.38277166740369,0 19.68403622838683,51.38333494072445,0 19.68405258377335,51.38372580614671,0 
							</coordinates>
						</LinearRing>
					</outerBoundaryIs>
				</Polygon>
			</Placemark>
			<Placemark>
				<name>APN7</name>
				<styleUrl>#m_ylw-pushpin2</styleUrl>
				<Polygon>
					<tessellate>1</tessellate>
					<outerBoundaryIs>
						<LinearRing>
							<coordinates>
								19.68478678261663,51.38548395178223,0 19.68480346950482,51.38546199123921,0 19.68482096433887,51.38544114324155,0 19.68484437936776,51.38542353371971,0 19.68486343070667,51.38540914772562,0 19.68489954630306,51.38539743949968,0 19.68493046141134,51.38538840087509,0 19.6849741953074,51.38537777694412,0 19.6850084494713,51.38537193827585,0 19.68505807862745,51.38536504211943,0 19.68509398907025,51.38536292123469,0 19.68512988757348,51.38536504225289,0 19.68517092534944,51.38537034664196,0 19.68520771090832,51.38537724636427,0 19.68524195080963,51.38538361899689,0 19.68527622292184,51.3853921219248,0 19.68530281918731,51.38540116355885,0 19.68533117278358,51.3854128757644,0 19.68535273348462,51.38542833389545,0 19.68536654561806,51.38543793976934,0 19.68538040900324,51.38545129536443,0 19.68538994883625,51.38546038657102,0 19.68539261294584,51.38546841456067,0 19.68478678261663,51.38548395178223,0 
							</coordinates>
						</LinearRing>
					</outerBoundaryIs>
				</Polygon>
			</Placemark>
			<Placemark>
				<name>APN8</name>
				<styleUrl>#m_ylw-pushpin2</styleUrl>
				<Polygon>
					<tessellate>1</tessellate>
					<outerBoundaryIs>
						<LinearRing>
							<coordinates>
								19.68614661255055,51.38548989066754,0 19.68616387672614,51.38535299335235,0 19.6861419742087,51.38535197216989,0 19.68614820189195,51.38529661818024,0 19.68623870998637,51.38530192505328,0 19.68623085052432,51.38535623135918,0 19.68620697479439,51.3853546250257,0 19.68618992149898,51.38549238776967,0 19.68614661255055,51.38548989066754,0 
							</coordinates>
						</LinearRing>
					</outerBoundaryIs>
				</Polygon>
			</Placemark>
		</Folder>
		<Folder>
			<name>APN Grass</name>
			<Placemark>
				<name>APN GRASS</name>
				<styleUrl>#m_ylw-pushpin2</styleUrl>
				<Polygon>
					<tessellate>1</tessellate>
					<outerBoundaryIs>
						<LinearRing>
							<coordinates>
								19.68436310752449,51.38508238851446,0 19.6842807307069,51.38409147487173,0 19.68454226257768,51.38408388333728,0 19.6846321392564,51.38507463908212,0 19.68436310752449,51.38508238851446,0 
							</coordinates>
						</LinearRing>
					</outerBoundaryIs>
				</Polygon>
			</Placemark>
		</Folder>
		<Folder>
			<name>Buildings</name>
			<Placemark>
				<name>HANGAR1</name>
				<styleUrl>#m_ylw-pushpin2</styleUrl>
				<Polygon>
					<tessellate>1</tessellate>
					<outerBoundaryIs>
						<LinearRing>
							<coordinates>
								19.68769794732919,51.38601762041093,0 19.68768448690869,51.3858631513263,0 19.68816312014525,51.38584773408398,0 19.68817587263264,51.38600114934493,0 19.68769794732919,51.38601762041093,0 
							</coordinates>
						</LinearRing>
					</outerBoundaryIs>
				</Polygon>
			</Placemark>
			<Placemark>
				<name>HANGAR2</name>
				<styleUrl>#m_ylw-pushpin2</styleUrl>
				<Polygon>
					<tessellate>1</tessellate>
					<outerBoundaryIs>
						<LinearRing>
							<coordinates>
								19.68700879209777,51.38603787230726,0 19.68699266746744,51.38588767271047,0 19.68758056101134,51.38586686492074,0 19.68759915132429,51.38601613733696,0 19.68700879209777,51.38603787230726,0 
							</coordinates>
						</LinearRing>
					</outerBoundaryIs>
				</Polygon>
			</Placemark>
			<Placemark>
				<name>HANGAR3</name>
				<styleUrl>#m_ylw-pushpin2</styleUrl>
				<Polygon>
					<tessellate>1</tessellate>
					<outerBoundaryIs>
						<LinearRing>
							<coordinates>
								19.68585343029957,51.38607602987442,0 19.68583994009902,51.38592670773023,0 19.68688562656487,51.38589231692377,0 19.68689927002212,51.38604019445849,0 19.68585343029957,51.38607602987442,0 
							</coordinates>
						</LinearRing>
					</outerBoundaryIs>
				</Polygon>
			</Placemark>
			<Placemark>
				<name>HANGAR4</name>
				<styleUrl>#m_ylw-pushpin2</styleUrl>
				<Polygon>
					<tessellate>1</tessellate>
					<outerBoundaryIs>
						<LinearRing>
							<coordinates>
								19.68530627456096,51.38609558900678,0 19.68529156152067,51.38590108780215,0 19.68572838254986,51.38588654759977,0 19.68574555153036,51.3860810486851,0 19.68530627456096,51.38609558900678,0 
							</coordinates>
						</LinearRing>
					</outerBoundaryIs>
				</Polygon>
			</Placemark>
			<Placemark>
				<name>HANGAR5</name>
				<styleUrl>#m_ylw-pushpin2</styleUrl>
				<Polygon>
					<tessellate>1</tessellate>
					<outerBoundaryIs>
						<LinearRing>
							<coordinates>
								19.68444194741108,51.38612376631195,0 19.68442862230898,51.38597445336905,0 19.68519202301977,51.38595021826615,0 19.68520428441525,51.38609800857003,0 19.68444194741108,51.38612376631195,0 
							</coordinates>
						</LinearRing>
					</outerBoundaryIs>
				</Polygon>
			</Placemark>
			<Placemark>
				<name>HANGAR6</name>
				<styleUrl>#m_ylw-pushpin2</styleUrl>
				<Polygon>
					<tessellate>1</tessellate>
					<outerBoundaryIs>
						<LinearRing>
							<coordinates>
								19.68360641418314,51.38579379380662,0 19.68382115597457,51.38578095215583,0 19.6838357168675,51.38587481614102,0 19.68361851024529,51.38588692465407,0 19.68360641418314,51.38579379380662,0 
							</coordinates>
						</LinearRing>
					</outerBoundaryIs>
				</Polygon>
			</Placemark>
			<Placemark>
				<name>BUILDING1</name>
				<styleUrl>#m_ylw-pushpin2</styleUrl>
				<Polygon>
					<tessellate>1</tessellate>
					<outerBoundaryIs>
						<LinearRing>
							<coordinates>
								19.68328817707947,51.38584778176905,0 19.68341922955654,51.38583718507069,0 19.68344712511946,51.3859734954363,0 19.68331849920926,51.38598409241603,0 19.68328817707947,51.38584778176905,0 
							</coordinates>
						</LinearRing>
					</outerBoundaryIs>
				</Polygon>
			</Placemark>
			<Placemark>
				<name>HANGAR7</name>
				<styleUrl>#m_ylw-pushpin2</styleUrl>
				<Polygon>
					<tessellate>1</tessellate>
					<outerBoundaryIs>
						<LinearRing>
							<coordinates>
								19.68323969123007,51.38579703762949,0 19.68322367305909,51.3856753338988,0 19.68344752276234,51.38566322752241,0 19.6834629637266,51.38578416948669,0 19.68323969123007,51.38579703762949,0 
							</coordinates>
						</LinearRing>
					</outerBoundaryIs>
				</Polygon>
			</Placemark>
			<Placemark>
				<name>HANGAR8</name>
				<styleUrl>#m_ylw-pushpin2</styleUrl>
				<Polygon>
					<tessellate>1</tessellate>
					<outerBoundaryIs>
						<LinearRing>
							<coordinates>
								19.68328002629428,51.3856030301904,0 19.68326082725974,51.38523359495997,0 19.68359564046083,51.38522514613104,0 19.68362092410105,51.38559634855113,0 19.68328002629428,51.3856030301904,0 
							</coordinates>
						</LinearRing>
					</outerBoundaryIs>
				</Polygon>
			</Placemark>
			<Placemark>
				<name>HANGAR9</name>
				<styleUrl>#m_ylw-pushpin2</styleUrl>
				<Polygon>
					<tessellate>1</tessellate>
					<outerBoundaryIs>
						<LinearRing>
							<coordinates>
								19.68325621814941,51.38521034660164,0 19.68324963753012,51.38507578755765,0 19.68354288499063,51.38507034036914,0 19.68354998758842,51.38520365383975,0 19.68325621814941,51.38521034660164,0 
							</coordinates>
						</LinearRing>
					</outerBoundaryIs>
				</Polygon>
			</Placemark>
			<Placemark>
				<name>AEROKLUB</name>
				<styleUrl>#m_ylw-pushpin2</styleUrl>
				<Polygon>
					<tessellate>1</tessellate>
					<outerBoundaryIs>
						<LinearRing>
							<coordinates>
								19.68340869846228,51.38488246832853,0 19.68339672252548,51.38465183863954,0 19.68336554694584,51.38465184086922,0 19.68336313961287,51.38453128112905,0 19.6833895358145,51.38452978441131,0 19.68338594165131,51.38447512229364,0 19.6835575162233,51.38447288251271,0 19.68355991066456,51.38452679609284,0 19.68356470852527,51.38454177214612,0 19.68357190687341,51.3845477627789,0 19.68358630384211,51.38455674895174,0 19.68359350161902,51.38456872999445,0 19.68359709953631,51.38458520369962,0 19.68359709839772,51.38459718446907,0 19.68359109824064,51.38460991359398,0 19.68358269881679,51.38461665242634,0 19.68356949989395,51.38462488860106,0 19.68356709972631,51.38463013010414,0 19.68356469941962,51.38463836703808,0 19.68356949793019,51.38464660399883,0 19.68357907440939,51.38487798257234,0 19.68340869846228,51.38488246832853,0 
							</coordinates>
						</LinearRing>
					</outerBoundaryIs>
				</Polygon>
			</Placemark>
			<Placemark>
				<name>BUILDING2</name>
				<styleUrl>#m_ylw-pushpin2</styleUrl>
				<Polygon>
					<tessellate>1</tessellate>
					<outerBoundaryIs>
						<LinearRing>
							<coordinates>
								19.68334004576186,51.38429711153722,0 19.68332955269974,51.38408045011932,0 19.68353417607904,51.38407553842567,0 19.68354904243301,51.38429329145054,0 19.68334004576186,51.38429711153722,0 
							</coordinates>
						</LinearRing>
					</outerBoundaryIs>
				</Polygon>
			</Placemark>
			<Placemark>
				<name>BUILDING3</name>
				<styleUrl>#m_ylw-pushpin2</styleUrl>
				<Polygon>
					<tessellate>1</tessellate>
					<outerBoundaryIs>
						<LinearRing>
							<coordinates>
								19.68359782021182,51.38406420738608,0 19.68359519657066,51.38401672736125,0 19.68374210543006,51.38401072406074,0 19.68374647796697,51.38405984120663,0 19.68374647793144,51.38405874974118,0 19.68359782021182,51.38406420738608,0 
							</coordinates>
						</LinearRing>
					</outerBoundaryIs>
				</Polygon>
			</Placemark>
			<Placemark>
				<name>BUILDING4</name>
				<styleUrl>#m_ylw-pushpin2</styleUrl>
				<Polygon>
					<tessellate>1</tessellate>
					<outerBoundaryIs>
						<LinearRing>
							<coordinates>
								19.68342205398061,51.38406147887763,0 19.68341768164712,51.38401290746314,0 19.68356808850875,51.38400690408368,0 19.6835698372493,51.38405656732466,0 19.68342205398061,51.38406147887763,0 
							</coordinates>
						</LinearRing>
					</outerBoundaryIs>
				</Polygon>
			</Placemark>
			<Placemark>
				<name>BUILDING5</name>
				<styleUrl>#m_ylw-pushpin2</styleUrl>
				<Polygon>
					<tessellate>1</tessellate>
					<outerBoundaryIs>
						<LinearRing>
							<coordinates>
								19.68324644325771,51.38395217713803,0 19.68354725626403,51.38394126252089,0 19.68355162871032,51.38399692883345,0 19.68325343875811,51.38400784351607,0 19.68324644325771,51.38395217713803,0 
							</coordinates>
						</LinearRing>
					</outerBoundaryIs>
				</Polygon>
			</Placemark>
			<Placemark>
				<name>BUILDING6</name>
				<styleUrl>#m_ylw-pushpin2</styleUrl>
				<Polygon>
					<tessellate>1</tessellate>
					<outerBoundaryIs>
						<LinearRing>
							<coordinates>
								19.68367056420905,51.38397295043978,0 19.68362946396708,51.38379067104938,0 19.68377637202792,51.38377975585542,0 19.68379036378369,51.38385288581277,0 19.6837492644194,51.38385725193645,0 19.68377200088499,51.38396367250229,0 19.68367056420905,51.38397295043978,0 
							</coordinates>
						</LinearRing>
					</outerBoundaryIs>
				</Polygon>
			</Placemark>
			<Placemark>
				<name>BUILDING7</name>
				<styleUrl>#m_ylw-pushpin2</styleUrl>
				<Polygon>
					<tessellate>1</tessellate>
					<outerBoundaryIs>
						<LinearRing>
							<coordinates>
								19.68312802170385,51.38394457150528,0 19.68311752969872,51.38376938658038,0 19.68320584956514,51.38376720378222,0 19.68321371876114,51.38394238865092,0 19.68312802170385,51.38394457150528,0 
							</coordinates>
						</LinearRing>
					</outerBoundaryIs>
				</Polygon>
			</Placemark>
			<Placemark>
				<name>HANGAR10</name>
				<styleUrl>#m_ylw-pushpin2</styleUrl>
				<Polygon>
					<tessellate>1</tessellate>
					<outerBoundaryIs>
						<LinearRing>
							<coordinates>
								19.68320130976271,51.3837291156031,0 19.68318382237953,51.38341203605702,0 19.68361425824,51.38340397848647,0 19.6836133971536,51.38337110999382,0 19.68363358875707,51.38337051778892,0 19.68365165360935,51.38374166925781,0 19.68363503878253,51.38374166919224,0 19.6836324280755,51.38371876773941,0 19.68320130976271,51.3837291156031,0 
							</coordinates>
						</LinearRing>
					</outerBoundaryIs>
				</Polygon>
			</Placemark>
			<Placemark>
				<name>HANGAR11</name>
				<styleUrl>#m_ylw-pushpin2</styleUrl>
				<Polygon>
					<tessellate>1</tessellate>
					<outerBoundaryIs>
						<LinearRing>
							<coordinates>
								19.68312295441718,51.38323180192661,0 19.6829937459717,51.38292028515034,0 19.68349456397858,51.38283836699259,0 19.68348232902507,51.38280763250629,0 19.68350098562134,51.38280370938563,0 19.68364468408057,51.38316393560641,0 19.68362878872678,51.38316609247616,0 19.683621755646,51.38314854652334,0 19.68312295441718,51.38323180192661,0 
							</coordinates>
						</LinearRing>
					</outerBoundaryIs>
				</Polygon>
			</Placemark>
		</Folder>
		<Folder>
			<name>Taxilanes</name>
			<Placemark>
				<name>A</name>
				<styleUrl>#m_ylw-pushpin100</styleUrl>
				<LineString>
					<tessellate>1</tessellate>
					<coordinates>
						19.68431546024848,51.38553224389874,0 19.68565200834652,51.38549535946267,0 19.68568540775494,51.38549534065068,0 19.68572187614442,51.3854957932173,0 19.68576142547537,51.38549719250814,0 19.68580303762688,51.38549974938358,0 19.6858592693492,51.38550304187467,0 19.6859895162569,51.38551200938316,0 19.68620641664127,51.38552860495334,0 19.69030950416219,51.38583067593573,0 19.6903784906252,51.38583458564368,0 19.69044043284285,51.38583800632657,0 19.69047885832147,51.38583947188582,0 19.69051022757345,51.38583995965001,0 19.6905447344785,51.38584044699147,0 19.69057531984118,51.38584044531645,0 19.69060982487771,51.38583995421966,0 19.69064511129402,51.385838973887,0 19.69067255168858,51.38583750483829,0 19.69071331493785,51.38583505681143,0 19.69075093678837,51.38583260927237,0 19.69079508823025,51.38582758713643,0 19.69083899334563,51.38582220215417,0 19.6908797513538,51.38581681879193,0 19.69091344543665,51.38581143744094,0 19.69094636973621,51.38580360868904,0 19.69100056952479,51.3857910709043,0 19.69104447876637,51.38577832270476,0 19.69108138458725,51.38576801024686,0 19.69117424826744,51.38573750874335,0 19.69122394390486,51.38572025344602,0 19.69128479258116,51.38569901631544,0 19.69134021512516,51.38567971773551,0 19.69140533959239,51.38565630139993,0 19.69143773392565,51.38564345041372,0 19.69146066763248,51.38563553027345,0 19.69148441693307,51.38563105108395,0 19.69150740297492,51.38562952658177,0 19.69152565560241,51.3856299829257,0 19.69155029861438,51.38563486880342,0 19.69157259402979,51.38564075420104,0 19.6915909517455,51.38565011520683,0 19.69160376517949,51.38566246569078,0 19.69170869194951,51.3857711704573,0 
					</coordinates>
				</LineString>
			</Placemark>
			<Placemark>
				<name>A</name>
				<styleUrl>#m_ylw-pushpin100</styleUrl>
				<LineString>
					<tessellate>1</tessellate>
					<coordinates>
						19.6914322009645,51.38564562549579,0 19.69145829204008,51.38563427314459,0 19.69147331902939,51.38562518103114,0 19.69148280483809,51.38561531117224,0 19.69149070823353,51.38560642760483,0 19.69149781066194,51.38559359204562,0 19.69150094653354,51.38557878270842,0 19.69150092691579,51.38556990039297,0 19.69149456569124,51.38555609060833,0 19.69148584538019,51.38554574330039,0 19.69147555091759,51.38553392969688,0 19.69138732141726,51.38544626317184,0 
					</coordinates>
				</LineString>
			</Placemark>
			<Placemark>
				<name>A</name>
				<styleUrl>#m_ylw-pushpin100</styleUrl>
				<LineString>
					<tessellate>1</tessellate>
					<coordinates>
						19.6906863305633,51.38583622468867,0 19.69065965806393,51.38583034651678,0 19.69064318724268,51.38582642830005,0 19.69062985522597,51.38582251104522,0 19.69061730979196,51.38581859444216,0 19.69060476607985,51.3858132101065,0 19.69059536003315,51.38580733775441,0 
					</coordinates>
				</LineString>
			</Placemark>
			<Placemark>
				<name>A</name>
				<styleUrl>#m_ylw-pushpin100</styleUrl>
				<LineString>
					<tessellate>1</tessellate>
					<coordinates>
						19.69052408817765,51.38580733891113,0 19.69051860775046,51.38581271983215,0 19.69051155814148,51.38581810222597,0 19.69050058708578,51.3858234864022,0 19.6904896128557,51.38582740322177,0 19.69047314787736,51.38583181067534,0 19.6904574647745,51.38583426001059,0 19.69042452814985,51.38583671074886,0 
					</coordinates>
				</LineString>
			</Placemark>
			<Placemark>
				<name>A</name>
				<styleUrl>#m_ylw-pushpin100</styleUrl>
				<LineString>
					<tessellate>1</tessellate>
					<coordinates>
						19.68586647654769,51.38558773998796,0 19.68588101015819,51.38557820598083,0 19.6858955345017,51.38556867692031,0 19.68591080619143,51.38556152991806,0 19.68592760423589,51.38555295474367,0 19.68594592715027,51.38554485575176,0 19.68597035483231,51.38553533065202,0 19.68599477834892,51.3855277128206,0 19.68601767896992,51.38552390014745,0 19.68604136102557,51.38552055216692,0 19.68606429502305,51.38551910602589,0 19.68608495034503,51.38551908877072,0 19.68611251403746,51.38552049416001,0 
					</coordinates>
				</LineString>
			</Placemark>
			<Placemark>
				<name>B</name>
				<styleUrl>#m_ylw-pushpin100</styleUrl>
				<LineString>
					<tessellate>1</tessellate>
					<coordinates>
						19.6851868034685,51.37920370596451,0 19.68502678748967,51.37903959443588,0 19.6850151694487,51.37903031260324,0 19.68499923681237,51.37902829232068,0 19.68498420354812,51.3790282386408,0 19.68488667325659,51.37905173329793,0 19.68485184911263,51.37906521797068,0 
					</coordinates>
				</LineString>
			</Placemark>
			<Placemark>
				<name>HELIPAD</name>
				<styleUrl>#msn_ylw-pushpin28</styleUrl>
				<LineString>
					<tessellate>1</tessellate>
					<coordinates>
						19.68617182815574,51.38533608756043,0 19.68618978684117,51.38533722569309,0 19.68619045462298,51.38531775407855,0 19.68620914886987,51.38531882732996,0 
					</coordinates>
				</LineString>
			</Placemark>
			<Placemark>
				<name>HELIPAD</name>
				<styleUrl>#msn_ylw-pushpin3</styleUrl>
				<LineString>
					<tessellate>1</tessellate>
					<coordinates>
						19.68617348644122,51.38531667630265,0 19.68619132414132,51.38531721786602,0 19.68618892907901,51.38533722343187,0 19.68620522439723,51.38533779632458,0 
					</coordinates>
				</LineString>
			</Placemark>
		</Folder>
		<Folder>
			<name>Roads</name>
			<Placemark>
				<name>ROAD1</name>
				<styleUrl>#msn_ylw-pushpin01</styleUrl>
				<LineString>
					<tessellate>1</tessellate>
					<coordinates>
						19.68891646068584,51.38576179618831,0 19.6889947777491,51.3857831794232,0 19.68906330483041,51.38580150830382,0 19.68911055806815,51.38582081284641,0 19.68916595394098,51.38585130487283,0 19.68923444126785,51.38588894254897,0 19.68927032774216,51.38591643021226,0 19.68928990582356,51.38593578410929,0 19.68932092759313,51.38596228277579,0 19.6893454226933,51.38599594022507,0 19.68936993932842,51.38602656191652,0 19.68939283794423,51.38605516265828,0 19.68940756645296,51.38608378300068,0 19.68948793474812,51.3862394976681,0 19.68960773019228,51.38646874317686,0 19.68964549292118,51.38653046009084,0 19.68967674958646,51.3865788747955,0 19.68970804826857,51.38662838510984,0 19.6897410397411,51.38667587619714,0 19.68982287137619,51.38678449691677,0 19.68986084960381,51.3868216257685,0 19.68989884411756,51.38686699549982,0 19.68994839081793,51.38691436360153,0 19.68999955841603,51.38696272669787,0 19.69004574518925,51.38700694521728,0 19.69012229342387,51.38707950525546,0 19.69021962436449,51.38716159234859,0 19.69030522306885,51.38722633834303,0 19.69043897714591,51.38733601399727,0 19.69052647383279,51.38740400133928,0 19.69060250615057,51.38745454834814,0 19.69069685779398,51.38751962760688,0 19.69080412387506,51.38758367938582,0 19.69090347236931,51.38763738713456,0 19.69103612585905,51.38770668935337,0 19.69113736962965,51.38775019072715,0 19.69125191744847,51.38780015868221,0 19.69138308936831,51.38785088795644,0 19.69147126534501,51.38788200075216,0 19.69157955569634,51.38791317006286,0 19.69173029551375,51.38795375813897,0 19.69189508978581,51.387995240626,0 19.69208695271202,51.38804616846421,0 19.69224408301473,51.38808470552826,0 19.69258265754374,51.38816935448739,0 19.69277088018763,51.38821333319332,0 19.69290058602446,51.38824377913734,0 19.69305531839078,51.38827516131241,0 19.69318639137379,51.38829928584139,0 19.69329062721879,51.38831292655646,0 19.69339994141782,51.38832657126572,0 19.69350928747599,51.38833917005294,0 19.69360855469257,51.3883475701959,0 19.69372127508733,51.3883517684438,0 19.69383225797469,51.38834651120138,0 19.69391623201593,51.38833075263844,0 19.69395816709109,51.38831815095103,0 19.69400503779832,51.38829505867697,0 19.69403842882253,51.38827093097058,0 19.69408910285146,51.38822736646353,0 19.69415256186528,51.38816755992937,0 19.69428558480379,51.38800535469714,0 19.69432205670646,51.38795837898488,0 19.69434350645636,51.38792083626085,0 19.69437161030269,51.38788124372351,0 19.69439625910647,51.38783232545126,0 19.69440754124066,51.38778658147507,0 19.69442306349526,51.38769382522754,0 19.69442266870438,51.38763666098136,0 19.69441904766511,51.38759513577806,0 19.69441710257059,51.38753908962757,0 
					</coordinates>
				</LineString>
			</Placemark>
			<Placemark>
				<name>ROAD1</name>
				<styleUrl>#msn_ylw-pushpin01</styleUrl>
				<LineString>
					<tessellate>1</tessellate>
					<coordinates>
						19.6943947826436,51.38744075037887,0 19.69437323645752,51.38746561972883,0 19.69436504734931,51.3874904680238,0 19.69436194153876,51.38752671064047,0 19.69436544096807,51.38755365351582,0 19.69437247556361,51.3876107015649,0 19.69437443550328,51.38765639847514,0 19.69437301725347,51.38769798781765,0 19.6943682570937,51.38773753266392,0 19.69436182167115,51.3877771144402,0 19.69434537600659,51.38782090657402,0 19.69432887711364,51.38785847867364,0 19.69430567691472,51.38789712964451,0 19.69424627072763,51.38798531783255,0 19.69418471924582,51.38805535708771,0 19.69414310559102,51.38810874805399,0 19.69410306004292,51.38815067067589,0 19.69405796602302,51.3881989329287,0 19.69402285418363,51.38823569095971,0 19.69397761352263,51.38826827509775,0 19.69394573440844,51.38828405139099,0 19.69388863219734,51.38830193845136,0 19.69384158052023,51.38831246459196,0 19.69379451033859,51.38831772971753,0 19.69372725447638,51.38832089006142,0 19.69366672039913,51.38832089268657,0 19.69359609705821,51.3883208949524,0 19.69352885017115,51.3883135287657,0 19.69344542040078,51.38830300768628,0 19.69334788497674,51.38829143714878,0 19.69321339534461,51.38827356075322,0 19.69311256713745,51.38825464011385,0 19.69300506466782,51.38823572754368,0 19.69291451176766,51.38821674211682,0 19.69280407257223,51.3881914513321,0 19.69265569207888,51.3881607051749,0 19.69243314551359,51.38810916079917,0 19.69225158741085,51.38806418272302,0 19.69189768306589,51.38797393315776,0 19.69170172917631,51.38792190124557,0 19.69154271969673,51.38787414418115,0 19.69142356609554,51.38783478298944,0 19.69127258630357,51.38777707860103,0 19.69113844935272,51.38772223558701,0 19.69102765852793,51.38766746348602,0 19.69092363196485,51.38761173068594,0 19.69075822165913,51.38751963153266,0 19.69061141658068,51.38742129687504,0 19.69050596717593,51.38734607850806,0 19.69042701866411,51.3872853850209,0 19.69030697952172,51.38719258320468,0 19.6901617342652,51.38706946347049,0 19.69002425421343,51.38694388387176,0 19.68994618623032,51.38686586567638,0 19.68987679990313,51.38679268293602,0 19.68981090800391,51.38671540319806,0 19.68973293269573,51.38660653733223,0 19.68962677511976,51.38643187428444,0 19.68951315259606,51.38620130733072,0 19.68946280036038,51.3861006477448,0 19.68942375407835,51.38603325900708,0 19.68937658841542,51.38596801718673,0 19.68933430428475,51.385922205505,0 19.68929525717972,51.38589067577747,0 19.68924482259902,51.38585713823511,0 19.68918135280204,51.38582667315593,0 19.68913905824403,51.38580739014304,0 19.68910732080224,51.38579063004317,0 19.68909100489467,51.38577433819832,0 
					</coordinates>
				</LineString>
			</Placemark>
		</Folder>
		<Folder>
			<name>HP</name>
			<Placemark>
				<name>A</name>
				<styleUrl>#msn_ylw-pushpin146</styleUrl>
				<LineString>
					<tessellate>1</tessellate>
					<coordinates>
						19.69114060714271,51.38571112634391,0 19.69118924135101,51.38577050631975,0 
					</coordinates>
				</LineString>
			</Placemark>
		</Folder>
		<Folder>
			<name>TaxiwayLabels</name>
			<Placemark>
				<name>B</name>
				<LookAt>
					<longitude>19.68805086986099</longitude>
					<latitude>51.38257739149211</latitude>
					<altitude>0</altitude>
					<heading>0.001158428768908145</heading>
					<tilt>8.924895109280087</tilt>
					<range>561.3836004765487</range>
					<gx:altitudeMode>relativeToSeaFloor</gx:altitudeMode>
				</LookAt>
				<styleUrl>#m_ylw-pushpin02</styleUrl>
				<Point>
					<gx:drawOrder>1</gx:drawOrder>
					<coordinates>19.68787761379361,51.38297065503923,0</coordinates>
				</Point>
			</Placemark>
			<Placemark>
				<name>A</name>
				<LookAt>
					<longitude>19.68867181638601</longitude>
					<latitude>51.38533702349151</latitude>
					<altitude>0</altitude>
					<heading>0.001628610097303119</heading>
					<tilt>14.67729482132883</tilt>
					<range>404.4502595707731</range>
					<gx:altitudeMode>relativeToSeaFloor</gx:altitudeMode>
				</LookAt>
				<styleUrl>#m_ylw-pushpin02</styleUrl>
				<Point>
					<gx:drawOrder>1</gx:drawOrder>
					<coordinates>19.68863519654255,51.38572609902483,0</coordinates>
				</Point>
			</Placemark>
			<Placemark>
				<name>03L</name>
				<LookAt>
					<longitude>19.68807270438707</longitude>
					<latitude>51.38127829998216</latitude>
					<altitude>0</altitude>
					<heading>4.103423542529926e-05</heading>
					<tilt>0.4323755550892547</tilt>
					<range>1048.249753161167</range>
					<gx:altitudeMode>relativeToSeaFloor</gx:altitudeMode>
				</LookAt>
				<styleUrl>#m_ylw-pushpin</styleUrl>
				<Point>
					<gx:drawOrder>1</gx:drawOrder>
					<coordinates>19.6852826638383,51.37930195571337,0</coordinates>
				</Point>
			</Placemark>
			<Placemark>
				<name>03R</name>
				<LookAt>
					<longitude>19.68807270438707</longitude>
					<latitude>51.38127829998216</latitude>
					<altitude>0</altitude>
					<heading>4.103423542529926e-05</heading>
					<tilt>0.4323755550892547</tilt>
					<range>1048.249753161167</range>
					<gx:altitudeMode>relativeToSeaFloor</gx:altitudeMode>
				</LookAt>
				<styleUrl>#m_ylw-pushpin</styleUrl>
				<Point>
					<gx:drawOrder>1</gx:drawOrder>
					<coordinates>19.68646081036795,51.37955863326584,0</coordinates>
				</Point>
			</Placemark>
			<Placemark>
				<name>21R</name>
				<LookAt>
					<longitude>19.69339074411402</longitude>
					<latitude>51.3846952939226</latitude>
					<altitude>0</altitude>
					<heading>0.004196221692766385</heading>
					<tilt>0.4323755550926265</tilt>
					<range>1048.249753164069</range>
					<gx:altitudeMode>relativeToSeaFloor</gx:altitudeMode>
				</LookAt>
				<styleUrl>#m_ylw-pushpin</styleUrl>
				<Point>
					<gx:drawOrder>1</gx:drawOrder>
					<coordinates>19.69110719454718,51.38515713368766,0</coordinates>
				</Point>
			</Placemark>
			<Placemark>
				<name>21L</name>
				<LookAt>
					<longitude>19.69339074411402</longitude>
					<latitude>51.3846952939226</latitude>
					<altitude>0</altitude>
					<heading>0.004196221692766385</heading>
					<tilt>0.4323755550926265</tilt>
					<range>1048.249753164069</range>
					<gx:altitudeMode>relativeToSeaFloor</gx:altitudeMode>
				</LookAt>
				<styleUrl>#m_ylw-pushpin</styleUrl>
				<Point>
					<gx:drawOrder>1</gx:drawOrder>
					<coordinates>19.69268621318409,51.38582365698239,0</coordinates>
				</Point>
			</Placemark>
		</Folder>
		<Folder>
			<name>BuildingLabels</name>
			<Placemark>
				<name>AEROKLUB</name>
				<LookAt>
					<longitude>19.68504993530615</longitude>
					<latitude>51.38461984766291</latitude>
					<altitude>0</altitude>
					<heading>-0.001773820009396975</heading>
					<tilt>0</tilt>
					<range>381.6472461102709</range>
					<gx:altitudeMode>relativeToSeaFloor</gx:altitudeMode>
				</LookAt>
				<styleUrl>#m_ylw-pushpin02</styleUrl>
				<Point>
					<gx:drawOrder>1</gx:drawOrder>
					<coordinates>19.68347322528799,51.38461980680184,0</coordinates>
				</Point>
			</Placemark>
			<Placemark>
				<name>CENTRUM SPADOCHRONOWE</name>
				<LookAt>
					<longitude>19.68472371786034</longitude>
					<latitude>51.38359856850584</latitude>
					<altitude>0</altitude>
					<heading>-0.002028707935421013</heading>
					<tilt>0</tilt>
					<range>381.8582442367102</range>
					<gx:altitudeMode>relativeToSeaFloor</gx:altitudeMode>
				</LookAt>
				<styleUrl>#m_ylw-pushpin02</styleUrl>
				<Point>
					<gx:drawOrder>1</gx:drawOrder>
					<coordinates>19.68339559002139,51.38354359528338,0</coordinates>
				</Point>
			</Placemark>
			<Placemark>
				<name>HANGAR 5</name>
				<LookAt>
					<longitude>19.68679681550229</longitude>
					<latitude>51.38585394934866</latitude>
					<altitude>0</altitude>
					<heading>0.0006174134381666623</heading>
					<tilt>0</tilt>
					<range>364.5528013738945</range>
					<gx:altitudeMode>relativeToSeaFloor</gx:altitudeMode>
				</LookAt>
				<styleUrl>#m_ylw-pushpin02</styleUrl>
				<Point>
					<gx:drawOrder>1</gx:drawOrder>
					<coordinates>19.68720459750791,51.38595452045801,0</coordinates>
				</Point>
			</Placemark>
			<Placemark>
				<name>HANGAR 4</name>
				<LookAt>
					<longitude>19.68602592110593</longitude>
					<latitude>51.38582002825434</latitude>
					<altitude>0</altitude>
					<heading>1.506424066740537e-05</heading>
					<tilt>0</tilt>
					<range>364.5528085427878</range>
					<gx:altitudeMode>relativeToSeaFloor</gx:altitudeMode>
				</LookAt>
				<styleUrl>#m_ylw-pushpin02</styleUrl>
				<Point>
					<gx:drawOrder>1</gx:drawOrder>
					<coordinates>19.68552232776578,51.3860034812691,0</coordinates>
				</Point>
			</Placemark>
			<Placemark>
				<name>HANGAR 3</name>
				<LookAt>
					<longitude>19.68407035034281</longitude>
					<latitude>51.38494782810769</latitude>
					<altitude>0</altitude>
					<heading>-0.001512939073905862</heading>
					<tilt>0</tilt>
					<range>363.9762679995879</range>
					<gx:altitudeMode>relativeToSeaFloor</gx:altitudeMode>
				</LookAt>
				<styleUrl>#m_ylw-pushpin02</styleUrl>
				<Point>
					<gx:drawOrder>1</gx:drawOrder>
					<coordinates>19.68342472531491,51.38545406958207,0</coordinates>
				</Point>
			</Placemark>
			<Placemark>
				<name>HANGAR 2</name>
				<LookAt>
					<longitude>19.68407035034281</longitude>
					<latitude>51.38494782810769</latitude>
					<altitude>0</altitude>
					<heading>-0.001512939073905862</heading>
					<tilt>0</tilt>
					<range>363.9762679995879</range>
					<gx:altitudeMode>relativeToSeaFloor</gx:altitudeMode>
				</LookAt>
				<styleUrl>#m_ylw-pushpin02</styleUrl>
				<Point>
					<gx:drawOrder>1</gx:drawOrder>
					<coordinates>19.68338887424406,51.38514457046117,0</coordinates>
				</Point>
			</Placemark>
			<Placemark>
				<name>HANGAR 1</name>
				<LookAt>
					<longitude>19.68466149184024</longitude>
					<latitude>51.3830168837094</latitude>
					<altitude>0</altitude>
					<heading>-0.001051076842112424</heading>
					<tilt>0</tilt>
					<range>364.1684802113162</range>
					<gx:altitudeMode>relativeToSeaFloor</gx:altitudeMode>
				</LookAt>
				<styleUrl>#m_ylw-pushpin02</styleUrl>
				<Point>
					<gx:drawOrder>1</gx:drawOrder>
					<coordinates>19.68327747237493,51.38302284806956,0</coordinates>
				</Point>
			</Placemark>
		</Folder>
		<atom:link rel="app" href="https://www.google.com/earth/about/versions/#earth-pro" title="Google Earth Pro 7.3.7.1155"></atom:link>
	</Folder>
</Document>
</kml>
