<?xml version="1.0" encoding="UTF-8"?>
<kml xmlns="http://www.opengis.net/kml/2.2" xmlns:gx="http://www.google.com/kml/ext/2.2" xmlns:kml="http://www.opengis.net/kml/2.2" xmlns:atom="http://www.w3.org/2005/Atom">
<Document>
	<name>NOTAMS.kml</name>
	<StyleMap id="m_ylw-pushpin">
		<Pair>
			<key>normal</key>
			<styleUrl>#s_ylw-pushpin2</styleUrl>
		</Pair>
		<Pair>
			<key>highlight</key>
			<styleUrl>#s_ylw-pushpin_hl</styleUrl>
		</Pair>
	</StyleMap>
	<StyleMap id="m_ylw-pushpin0">
		<Pair>
			<key>normal</key>
			<styleUrl>#s_ylw-pushpin</styleUrl>
		</Pair>
		<Pair>
			<key>highlight</key>
			<styleUrl>#s_ylw-pushpin_hl0</styleUrl>
		</Pair>
	</StyleMap>
	<StyleMap id="m_ylw-pushpin1">
		<Pair>
			<key>normal</key>
			<styleUrl>#s_ylw-pushpin0</styleUrl>
		</Pair>
		<Pair>
			<key>highlight</key>
			<styleUrl>#s_ylw-pushpin_hl1</styleUrl>
		</Pair>
	</StyleMap>
	<StyleMap id="m_ylw-pushpin01">
		<Pair>
			<key>normal</key>
			<styleUrl>#s_ylw-pushpin1</styleUrl>
		</Pair>
		<Pair>
			<key>highlight</key>
			<styleUrl>#s_ylw-pushpin_hl4</styleUrl>
		</Pair>
	</StyleMap>
	<StyleMap id="m_ylw-pushpin30">
		<Pair>
			<key>normal</key>
			<styleUrl>#s_ylw-pushpin00</styleUrl>
		</Pair>
		<Pair>
			<key>highlight</key>
			<styleUrl>#s_ylw-pushpin_hl04</styleUrl>
		</Pair>
	</StyleMap>
	<StyleMap id="msn_ylw-pushpin">
		<Pair>
			<key>normal</key>
			<styleUrl>#sn_ylw-pushpin</styleUrl>
		</Pair>
		<Pair>
			<key>highlight</key>
			<styleUrl>#sh_ylw-pushpin</styleUrl>
		</Pair>
	</StyleMap>
	<StyleMap id="msn_ylw-pushpin0">
		<Pair>
			<key>normal</key>
			<styleUrl>#sn_ylw-pushpin0</styleUrl>
		</Pair>
		<Pair>
			<key>highlight</key>
			<styleUrl>#sh_ylw-pushpin0</styleUrl>
		</Pair>
	</StyleMap>
	<Style id="s_ylw-pushpin">
		<IconStyle>
			<scale>1.1</scale>
			<Icon>
				<href>http://maps.google.com/mapfiles/kml/pushpin/ylw-pushpin.png</href>
			</Icon>
			<hotSpot x="20" y="2" xunits="pixels" yunits="pixels"/>
		</IconStyle>
		<PolyStyle>
			<color>33ffffff</color>
		</PolyStyle>
	</Style>
	<Style id="s_ylw-pushpin0">
		<IconStyle>
			<scale>1.1</scale>
			<Icon>
				<href>http://maps.google.com/mapfiles/kml/pushpin/ylw-pushpin.png</href>
			</Icon>
			<hotSpot x="20" y="2" xunits="pixels" yunits="pixels"/>
		</IconStyle>
		<PolyStyle>
			<color>33ffffff</color>
		</PolyStyle>
	</Style>
	<Style id="s_ylw-pushpin2">
		<IconStyle>
			<scale>1.1</scale>
			<Icon>
				<href>http://maps.google.com/mapfiles/kml/pushpin/ylw-pushpin.png</href>
			</Icon>
			<hotSpot x="20" y="2" xunits="pixels" yunits="pixels"/>
		</IconStyle>
	</Style>
	<Style id="s_ylw-pushpin00">
		<IconStyle>
			<scale>1.1</scale>
			<Icon>
				<href>http://maps.google.com/mapfiles/kml/pushpin/ylw-pushpin.png</href>
			</Icon>
			<hotSpot x="20" y="2" xunits="pixels" yunits="pixels"/>
		</IconStyle>
		<PolyStyle>
			<color>33ffffff</color>
		</PolyStyle>
	</Style>
	<Style id="s_ylw-pushpin1">
		<IconStyle>
			<scale>1.1</scale>
			<Icon>
				<href>http://maps.google.com/mapfiles/kml/pushpin/ylw-pushpin.png</href>
			</Icon>
			<hotSpot x="20" y="2" xunits="pixels" yunits="pixels"/>
		</IconStyle>
	</Style>
	<Style id="s_ylw-pushpin_hl">
		<IconStyle>
			<scale>1.3</scale>
			<Icon>
				<href>http://maps.google.com/mapfiles/kml/pushpin/ylw-pushpin.png</href>
			</Icon>
			<hotSpot x="20" y="2" xunits="pixels" yunits="pixels"/>
		</IconStyle>
	</Style>
	<Style id="s_ylw-pushpin_hl0">
		<IconStyle>
			<scale>1.3</scale>
			<Icon>
				<href>http://maps.google.com/mapfiles/kml/pushpin/ylw-pushpin.png</href>
			</Icon>
			<hotSpot x="20" y="2" xunits="pixels" yunits="pixels"/>
		</IconStyle>
		<PolyStyle>
			<color>33ffffff</color>
		</PolyStyle>
	</Style>
	<Style id="s_ylw-pushpin_hl1">
		<IconStyle>
			<scale>1.3</scale>
			<Icon>
				<href>http://maps.google.com/mapfiles/kml/pushpin/ylw-pushpin.png</href>
			</Icon>
			<hotSpot x="20" y="2" xunits="pixels" yunits="pixels"/>
		</IconStyle>
		<PolyStyle>
			<color>33ffffff</color>
		</PolyStyle>
	</Style>
	<Style id="s_ylw-pushpin_hl04">
		<IconStyle>
			<scale>1.3</scale>
			<Icon>
				<href>http://maps.google.com/mapfiles/kml/pushpin/ylw-pushpin.png</href>
			</Icon>
			<hotSpot x="20" y="2" xunits="pixels" yunits="pixels"/>
		</IconStyle>
		<PolyStyle>
			<color>33ffffff</color>
		</PolyStyle>
	</Style>
	<Style id="s_ylw-pushpin_hl4">
		<IconStyle>
			<scale>1.3</scale>
			<Icon>
				<href>http://maps.google.com/mapfiles/kml/pushpin/ylw-pushpin.png</href>
			</Icon>
			<hotSpot x="20" y="2" xunits="pixels" yunits="pixels"/>
		</IconStyle>
	</Style>
	<Style id="sh_ylw-pushpin">
		<IconStyle>
			<scale>1.3</scale>
			<Icon>
				<href>http://maps.google.com/mapfiles/kml/pushpin/ylw-pushpin.png</href>
			</Icon>
			<hotSpot x="20" y="2" xunits="pixels" yunits="pixels"/>
		</IconStyle>
		<BalloonStyle>
		</BalloonStyle>
		<LineStyle>
			<color>ffb18ff4</color>
			<width>2</width>
		</LineStyle>
	</Style>
	<Style id="sh_ylw-pushpin0">
		<IconStyle>
			<scale>1.3</scale>
			<Icon>
				<href>http://maps.google.com/mapfiles/kml/pushpin/ylw-pushpin.png</href>
			</Icon>
			<hotSpot x="20" y="2" xunits="pixels" yunits="pixels"/>
		</IconStyle>
		<BalloonStyle>
		</BalloonStyle>
		<LineStyle>
			<color>ff2e3bba</color>
		</LineStyle>
	</Style>
	<Style id="sn_ylw-pushpin">
		<IconStyle>
			<scale>1.1</scale>
			<Icon>
				<href>http://maps.google.com/mapfiles/kml/pushpin/ylw-pushpin.png</href>
			</Icon>
			<hotSpot x="20" y="2" xunits="pixels" yunits="pixels"/>
		</IconStyle>
		<BalloonStyle>
		</BalloonStyle>
		<LineStyle>
			<color>ffb18ff4</color>
			<width>2</width>
		</LineStyle>
	</Style>
	<Style id="sn_ylw-pushpin0">
		<IconStyle>
			<scale>1.1</scale>
			<Icon>
				<href>http://maps.google.com/mapfiles/kml/pushpin/ylw-pushpin.png</href>
			</Icon>
			<hotSpot x="20" y="2" xunits="pixels" yunits="pixels"/>
		</IconStyle>
		<BalloonStyle>
		</BalloonStyle>
		<LineStyle>
			<color>ff2e3bba</color>
		</LineStyle>
	</Style>
	<Folder>
		<name>NOTAMS</name>
		<Folder>
			<name>EPBY SUP 123/26</name>
			<Placemark>
				<name>TWY C1 CLSD</name>
				<styleUrl>#m_ylw-pushpin30</styleUrl>
				<Polygon>
					<tessellate>1</tessellate>
					<outerBoundaryIs>
						<LinearRing>
							<coordinates>
								17.96791429860043,53.08990849867808,0 17.96824060108035,53.0898830502858,0 17.96886772105434,53.09287904953835,0 17.96849719273099,53.09289596750771,0 17.96791429860043,53.08990849867808,0 
							</coordinates>
						</LinearRing>
					</outerBoundaryIs>
				</Polygon>
			</Placemark>
		</Folder>
		<Folder>
			<name>EPKK A2452/26</name>
			<Style>
				<ListStyle>
					<listItemType>check</listItemType>
					<bgColor>00ffffff</bgColor>
					<maxSnippetLines>2</maxSnippetLines>
				</ListStyle>
			</Style>
			<Placemark>
				<name>TWY H CLSD</name>
				<styleUrl>#m_ylw-pushpin1</styleUrl>
				<Polygon>
					<tessellate>1</tessellate>
					<outerBoundaryIs>
						<LinearRing>
							<coordinates>
								19.77420109761783,50.0734311635298,0 19.77281807538037,50.07325234898609,0 19.78060270524394,50.07305810811251,0 19.78064119766197,50.07327230539322,0 19.78041292965396,50.07325697419218,0 19.77420109761783,50.0734311635298,0 
							</coordinates>
						</LinearRing>
					</outerBoundaryIs>
				</Polygon>
			</Placemark>
		</Folder>
		<Folder>
			<name>EPPO A2603/26</name>
			<Placemark>
				<name>STND 17</name>
				<styleUrl>#msn_ylw-pushpin</styleUrl>
				<LineString>
					<tessellate>1</tessellate>
					<coordinates>
						16.82844420333603,52.4165479980534,0 16.82810565707922,52.41562943998939,0 
					</coordinates>
				</LineString>
			</Placemark>
			<Placemark>
				<name>STND 17L</name>
				<styleUrl>#msn_ylw-pushpin</styleUrl>
				<LineString>
					<tessellate>1</tessellate>
					<coordinates>
						16.8285015147239,52.41654012803127,0 16.82817130486053,52.41565135540561,0 
					</coordinates>
				</LineString>
			</Placemark>
		</Folder>
		<Folder>
			<name>EPPO A2603/26 TXT</name>
			<Placemark>
				<name>MAX 36M</name>
				<LookAt>
					<longitude>16.8287661609673</longitude>
					<latitude>52.41635964879028</latitude>
					<altitude>0</altitude>
					<heading>0.0003810348366473423</heading>
					<tilt>0</tilt>
					<range>295.3364851878136</range>
					<gx:altitudeMode>relativeToSeaFloor</gx:altitudeMode>
				</LookAt>
				<styleUrl>#m_ylw-pushpin</styleUrl>
				<Point>
					<gx:drawOrder>1</gx:drawOrder>
					<coordinates>16.82833194149784,52.41619764232568,0</coordinates>
				</Point>
			</Placemark>
		</Folder>
		<Folder>
			<name>EPRZ SUP 56/25</name>
			<Placemark>
				<name>CONSTRUCTION WORKS</name>
				<styleUrl>#m_ylw-pushpin30</styleUrl>
				<Polygon>
					<tessellate>1</tessellate>
					<outerBoundaryIs>
						<LinearRing>
							<coordinates>
								22.02937735543185,50.1116261418543,0 22.02935248220671,50.11126202002251,0 22.03526795480651,50.11117082606477,0 22.03520643286879,50.10998014599373,0 22.03610755228256,50.10996539374576,0 22.03616132653834,50.11115607035884,0 22.04529821392525,50.11104721015396,0 22.04528506560494,50.10990408841095,0 22.04618996544913,50.10988851784685,0 22.04618213985866,50.11138982576443,0 22.02937735543185,50.1116261418543,0 
							</coordinates>
						</LinearRing>
					</outerBoundaryIs>
				</Polygon>
			</Placemark>
		</Folder>
		<Folder>
			<name>EPWA SUP 85/26</name>
			<Placemark>
				<name>R WINGSPAN MAX 36M</name>
				<styleUrl>#m_ylw-pushpin01</styleUrl>
				<LineString>
					<tessellate>1</tessellate>
					<coordinates>
						20.97733528966151,52.16319862485715,0 20.9773702186445,52.16322719642603,0 20.9777264796696,52.16369004575333,0 20.97801695090466,52.16407426373127,0 
					</coordinates>
				</LineString>
			</Placemark>
		</Folder>
		<Folder>
			<name>EPWA A2824/26</name>
			<Placemark>
				<name>RWY15/33 CLSD</name>
				<styleUrl>#m_ylw-pushpin0</styleUrl>
				<Polygon>
					<tessellate>1</tessellate>
					<outerBoundaryIs>
						<LinearRing>
							<coordinates>
								20.95483026069198,52.17877168773947,0 20.9652703884251,52.16684653156482,0 20.96763978072467,52.16616303796372,0 20.95626563392467,52.17923164826703,0 20.95483026069198,52.17877168773947,0 
							</coordinates>
						</LinearRing>
					</outerBoundaryIs>
				</Polygon>
			</Placemark>
			<Placemark>
				<name>RWY15/33 CLSD</name>
				<styleUrl>#m_ylw-pushpin0</styleUrl>
				<Polygon>
					<tessellate>1</tessellate>
					<outerBoundaryIs>
						<LinearRing>
							<coordinates>
								20.97615793497095,52.15433577560833,0 20.97757025626916,52.15480109929366,0 20.96892452982617,52.16459872449398,0 20.96678548500558,52.16511960424157,0 20.97615793497095,52.15433577560833,0 
							</coordinates>
						</LinearRing>
					</outerBoundaryIs>
				</Polygon>
			</Placemark>
		</Folder>
		<Folder>
			<name>EPWA A2825/26</name>
			<Placemark>
				<name>A8 CLSD</name>
				<styleUrl>#m_ylw-pushpin1</styleUrl>
				<Polygon>
					<tessellate>1</tessellate>
					<outerBoundaryIs>
						<LinearRing>
							<coordinates>
								20.98218710478024,52.15353320216649,0 20.98155960135743,52.15333374420106,0 20.98325664872365,52.15131072981613,0 20.98339852154046,52.15107701383506,0 20.98341135284356,52.15094630580283,0 20.98334026720439,52.15081561734895,0 20.98322402027183,52.15072454595912,0 20.98284308622922,52.15058600458647,0 20.98326238066401,52.15011061995887,0 20.98396618301711,52.15035558136084,0 20.98418589036037,52.15049028913135,0 20.98433456395018,52.15065672133034,0 20.98438632977987,52.15079939501915,0 20.98439933842147,52.15094207803386,0 20.98437357213954,52.15105702580817,0 20.98429599717479,52.15117192929327,0 20.9842186762137,52.15127505375067,0 20.98218710478024,52.15353320216649,0 
							</coordinates>
						</LinearRing>
					</outerBoundaryIs>
				</Polygon>
			</Placemark>
		</Folder>
		<Folder>
			<name>EPWA A2837/26</name>
			<Placemark>
				<name>O1 NOT AVBL</name>
				<styleUrl>#msn_ylw-pushpin0</styleUrl>
				<LineString>
					<tessellate>1</tessellate>
					<coordinates>
						20.96505496554975,52.1712332624346,0 20.96468251621126,52.1711171507737,0 20.96470789462611,52.17118630396069,0 20.96468251621126,52.1711171507737,0 20.96478531044205,52.17109526141675,0 20.96468251621126,52.1711171507737,0 20.96459948113624,52.17121432002248,0 20.96476006027469,52.17102068859763,0 
					</coordinates>
				</LineString>
			</Placemark>
			<Placemark>
				<name>S2 NOT AVBL</name>
				<styleUrl>#msn_ylw-pushpin0</styleUrl>
				<LineString>
					<tessellate>1</tessellate>
					<coordinates>
						20.96232624663181,52.17413646333438,0 20.96210831931749,52.17437880423035,0 20.96221746877367,52.17425333832898,0 20.96237525590237,52.1742352646467,0 20.96221746877367,52.17425333832898,0 20.96227495688498,52.17435055784875,0 20.96221746877367,52.17425333832898,0 20.96254075315667,52.17436346607357,0 
					</coordinates>
				</LineString>
			</Placemark>
			<Placemark>
				<name>D2 NOT AVBL</name>
				<styleUrl>#msn_ylw-pushpin0</styleUrl>
				<LineString>
					<tessellate>1</tessellate>
					<coordinates>
						20.96031466034027,52.1762843199903,0 20.96009925202434,52.1765233542213,0 20.96020865456813,52.17639781702854,0 20.96042825410574,52.17637386678871,0 20.96020865456813,52.17639781702854,0 20.96029782514649,52.17653174549208,0 20.96021417539326,52.17639962704448,0 20.96057861384021,52.17651910096961,0 
					</coordinates>
				</LineString>
			</Placemark>
			<Placemark>
				<name>D3 NOT AVBL</name>
				<styleUrl>#msn_ylw-pushpin0</styleUrl>
				<LineString>
					<tessellate>1</tessellate>
					<coordinates>
						20.95815526029561,52.17367725636764,0 20.95795434317989,52.17390804141094,0 20.95806297034617,52.17378326547441,0 20.95797250349965,52.17367744302933,0 20.95806297034617,52.17378326547441,0 20.95786930890798,52.17379592630721,0 20.95806297034617,52.17378326547441,0 20.95768487375211,52.17366327582298,0 
					</coordinates>
				</LineString>
			</Placemark>
		</Folder>
		<Folder>
			<name>EPWA A2853/26</name>
			<Placemark>
				<name>RWY 15/33 CLSD FM A8 TO H2</name>
				<styleUrl>#m_ylw-pushpin1</styleUrl>
				<Polygon>
					<tessellate>1</tessellate>
					<outerBoundaryIs>
						<LinearRing>
							<coordinates>
								20.977572963479,52.15479546700274,0 20.97615652185131,52.15433821102346,0 20.98115562417794,52.14872375910144,0 20.98252778723814,52.14915653718068,0 20.977572963479,52.15479546700274,0 
							</coordinates>
						</LinearRing>
					</outerBoundaryIs>
				</Polygon>
			</Placemark>
		</Folder>
		<Folder>
			<name>EPWA A2871/26</name>
			<open>1</open>
			<Placemark>
				<name>SEGMENT OF U2 CLSD</name>
				<styleUrl>#m_ylw-pushpin1</styleUrl>
				<Polygon>
					<tessellate>1</tessellate>
					<outerBoundaryIs>
						<LinearRing>
							<coordinates>
								20.96474807374658,52.17909602232357,0 20.96459388144573,52.17868955474131,0 20.96719297722241,52.17810087438772,0 20.96775954592658,52.17828370750073,0 20.96751978621834,52.17842302895365,0 20.96729635135103,52.17851894696251,0 20.96474807374658,52.17909602232357,0 
							</coordinates>
						</LinearRing>
					</outerBoundaryIs>
				</Polygon>
			</Placemark>
		</Folder>
		<Folder>
			<name>EPWR SUP 159/26</name>
			<Placemark>
				<name>Terminal Construction</name>
				<styleUrl>#m_ylw-pushpin1</styleUrl>
				<Polygon>
					<tessellate>1</tessellate>
					<outerBoundaryIs>
						<LinearRing>
							<coordinates>
								16.88179194438283,51.10911951975763,0 16.88151583140217,51.10876561072986,0 16.88250766303022,51.10845126684278,0 16.88277183783803,51.10881844618959,0 16.88179194438283,51.10911951975763,0 
							</coordinates>
						</LinearRing>
					</outerBoundaryIs>
				</Polygon>
			</Placemark>
			<Placemark>
				<name>APN6 construction</name>
				<styleUrl>#m_ylw-pushpin1</styleUrl>
				<Polygon>
					<tessellate>1</tessellate>
					<outerBoundaryIs>
						<LinearRing>
							<coordinates>
								16.90338037428004,51.10501718756063,0 16.9033852320734,51.10476929117998,0 16.90367948414849,51.10474817444275,0 16.9036994388989,51.10423260123378,0 16.90699778774033,51.10412609847302,0 16.90701201086899,51.10429123125739,0 16.90645180049536,51.10430969294214,0 16.9064946779081,51.1043140509388,0 16.906480218915,51.10481729306874,0 16.90627474083692,51.10482102987042,0 16.90609548277317,51.10495102097969,0 16.90581512496542,51.10500235918364,0 16.90338037428004,51.10501718756063,0 
							</coordinates>
						</LinearRing>
					</outerBoundaryIs>
				</Polygon>
			</Placemark>
		</Folder>
		<atom:link rel="app" href="https://www.google.com/earth/about/versions/#earth-pro" title="Google Earth Pro 7.3.7.1327"></atom:link>
	</Folder>
</Document>
</kml>
